( pcb2gcode 3.0.4 )
( Software-independent Gcode )

G94 ( Millimeters per minute feed rate. )
G21 ( Units == Millimeters. )

G90 ( Absolute coordinates. )
G00 S12000 ( RPM spindle speed. )
G01 F300.00000 ( Feedrate. )


G00 Z10.00000 (Retract to tool change height)
T1
M5      (Spindle stop.)
G04 P3.00000 (Wait for spindle to stop)
(MSG, Change tool bit to mill diameter 0.24287mm)
M0      (Temporary machine stop.)
M3 ( Spindle on clockwise. )
G04 P3.00000 (Wait for spindle to get up to speed)
G04 P0 ( dwell for no time -- G64 should not smooth over this point )
G00 Z5.00000 ( retract )

G00 X7.35856 Y-8.49998 ( rapid move to begin. )
G01 F100.00000
( Mill infeed pass 1/1 )
G01 Z-0.08000
G04 P0 ( dwell for no time -- G64 should not smooth over this point )
G01 F300.00000
G01 X7.35856 Y-8.49998
G01 X7.35856 Y-3.34998
G01 X7.36227 Y-3.32019
G01 X7.37319 Y-3.29220
G01 X7.39064 Y-3.26768
G01 X7.41357 Y-3.24833
G01 X7.44055 Y-3.23512
G01 X7.46001 Y-3.23022
G01 X7.48000 Y-3.22854
G01 X10.27999 Y-3.22854
G01 X10.30981 Y-3.23228
G01 X10.32876 Y-3.23878
G01 X10.34641 Y-3.24833
G01 X10.36932 Y-3.26768
G01 X10.38680 Y-3.29220
G01 X10.39485 Y-3.31056
G01 X10.39978 Y-3.32999
G01 X10.40143 Y-3.34998
G01 X10.40143 Y-8.49998
G01 X10.39772 Y-8.52980
G01 X10.38680 Y-8.55779
G01 X10.36932 Y-8.58223
G01 X10.34641 Y-8.60166
G01 X10.32876 Y-8.61118
G01 X10.30981 Y-8.61771
G01 X10.27999 Y-8.62142
G01 X7.48000 Y-8.62142
G01 X7.46001 Y-8.61977
G01 X7.44055 Y-8.61484
G01 X7.42218 Y-8.60679
G01 X7.39775 Y-8.58934
G01 X7.38416 Y-8.57458
G01 X7.36877 Y-8.54878
G01 X7.36021 Y-8.51997
G01 X7.35856 Y-8.49998
G01 X7.25142 Y-8.49998
G01 X7.25165 Y-8.50997
G01 X7.25686 Y-8.54946
G01 X7.26882 Y-8.58746
G01 X7.28723 Y-8.62279
G01 X7.29866 Y-8.63912
G01 X7.31838 Y-8.66160
G01 X7.34085 Y-8.68131
G01 X7.35719 Y-8.69274
G01 X7.39252 Y-8.71113
G01 X7.43052 Y-8.72312
G01 X7.47001 Y-8.72833
G01 X10.28995 Y-8.72833
G01 X10.31966 Y-8.72508
G01 X10.33915 Y-8.72076
G01 X10.36744 Y-8.71113
G01 X10.39426 Y-8.69793
G01 X10.41913 Y-8.68131
G01 X10.44161 Y-8.66160
G01 X10.46132 Y-8.63912
G01 X10.47793 Y-8.61426
G01 X10.49114 Y-8.58746
G01 X10.50077 Y-8.55914
G01 X10.50658 Y-8.52983
G01 X10.50854 Y-8.49998
G01 X10.50854 Y-3.34998
G01 X10.50658 Y-3.32016
G01 X10.50077 Y-3.29082
G01 X10.49114 Y-3.26253
G01 X10.47793 Y-3.23571
G01 X10.46132 Y-3.21084
G01 X10.44161 Y-3.18839
G01 X10.41913 Y-3.16865
G01 X10.39426 Y-3.15206
G01 X10.36744 Y-3.13883
G01 X10.33915 Y-3.12923
G01 X10.30981 Y-3.12339
G01 X10.27999 Y-3.12143
G01 X7.47001 Y-3.12166
G01 X7.43052 Y-3.12684
G01 X7.41126 Y-3.13200
G01 X7.38340 Y-3.14284
G01 X7.35719 Y-3.15722
G01 X7.34085 Y-3.16865
G01 X7.31147 Y-3.19557
G01 X7.28723 Y-3.22720
G01 X7.26882 Y-3.26253
G01 X7.26201 Y-3.28120
G01 X7.25490 Y-3.31031
G01 X7.25142 Y-3.34998
G01 X7.25142 Y-20.65000
G01 X7.35856 Y-20.65000
G01 X7.35856 Y-15.49999
G01 X7.36227 Y-15.47017
G01 X7.36877 Y-15.45120
G01 X7.37832 Y-15.43357
G01 X7.39775 Y-15.41064
G01 X7.42218 Y-15.39319
G01 X7.45018 Y-15.38227
G01 X7.48000 Y-15.37856
G01 X10.27999 Y-15.37856
G01 X10.30981 Y-15.38227
G01 X10.32876 Y-15.38877
G01 X10.34641 Y-15.39832
G01 X10.36223 Y-15.41064
G01 X10.37582 Y-15.42539
G01 X10.39119 Y-15.45120
G01 X10.39772 Y-15.47017
G01 X10.40143 Y-15.49999
G01 X10.40143 Y-20.65000
G01 X10.39772 Y-20.67979
G01 X10.39119 Y-20.69876
G01 X10.38164 Y-20.71642
G01 X10.36223 Y-20.73933
G01 X10.33777 Y-20.75678
G01 X10.30981 Y-20.76770
G01 X10.27999 Y-20.77143
G01 X7.48000 Y-20.77143
G01 X7.45018 Y-20.76770
G01 X7.43120 Y-20.76120
G01 X7.41357 Y-20.75165
G01 X7.39064 Y-20.73224
G01 X7.37832 Y-20.71642
G01 X7.36877 Y-20.69876
G01 X7.36021 Y-20.66999
G01 X7.35856 Y-20.65000
G01 X7.25142 Y-20.65000
G01 X7.25490 Y-20.68967
G01 X7.26521 Y-20.72815
G01 X7.28205 Y-20.76427
G01 X7.30491 Y-20.79691
G01 X7.33308 Y-20.82508
G01 X7.35719 Y-20.84276
G01 X7.39252 Y-20.86115
G01 X7.43052 Y-20.87314
G01 X7.47001 Y-20.87832
G01 X10.27999 Y-20.87855
G01 X10.30981 Y-20.87659
G01 X10.33915 Y-20.87075
G01 X10.36744 Y-20.86115
G01 X10.39426 Y-20.84791
G01 X10.41913 Y-20.83130
G01 X10.44161 Y-20.81159
G01 X10.46132 Y-20.78911
G01 X10.47793 Y-20.76427
G01 X10.49114 Y-20.73745
G01 X10.50077 Y-20.70915
G01 X10.50658 Y-20.67982
G01 X10.50854 Y-20.65000
G01 X10.50854 Y-15.49999
G01 X10.50658 Y-15.47015
G01 X10.50077 Y-15.44084
G01 X10.49114 Y-15.41252
G01 X10.47793 Y-15.38572
G01 X10.46132 Y-15.36085
G01 X10.44161 Y-15.33837
G01 X10.41913 Y-15.31866
G01 X10.39426 Y-15.30205
G01 X10.36744 Y-15.28882
G01 X10.33915 Y-15.27922
G01 X10.30981 Y-15.27338
G01 X10.28995 Y-15.27165
G01 X7.47001 Y-15.27165
G01 X7.45015 Y-15.27338
G01 X7.42084 Y-15.27922
G01 X7.38340 Y-15.29286
G01 X7.36572 Y-15.30205
G01 X7.34085 Y-15.31866
G01 X7.31147 Y-15.34559
G01 X7.28723 Y-15.37719
G01 X7.26882 Y-15.41252
G01 X7.25922 Y-15.44084
G01 X7.25490 Y-15.46029
G01 X7.25142 Y-15.49999
G04 P0 ( dwell for no time -- G64 should not smooth over this point )
G00 Z5.00000 ( retract )

G00 X18.53143 Y-12.25499 ( rapid move to begin. )
G01 F100.00000
( Mill infeed pass 1/1 )
G01 Z-0.08000
G04 P0 ( dwell for no time -- G64 should not smooth over this point )
G01 F300.00000
G01 X18.53143 Y-12.25499
G01 X18.53339 Y-12.22515
G01 X18.53923 Y-12.19584
G01 X18.54883 Y-12.16751
G01 X18.56204 Y-12.14072
G01 X18.57865 Y-12.11585
G01 X18.59836 Y-12.09337
G01 X18.62084 Y-12.07366
G01 X18.65211 Y-12.05354
G01 X22.04786 Y-12.05354
G01 X22.07913 Y-12.07366
G01 X22.10849 Y-12.10059
G01 X22.13275 Y-12.13218
G01 X22.15114 Y-12.16751
G01 X22.15797 Y-12.18626
G01 X22.16508 Y-12.21529
G01 X22.16854 Y-12.25730
G01 X22.14207 Y-12.28466
G01 X22.16854 Y-12.25730
G01 X22.92091 Y-12.27844
G01 X22.93412 Y-12.29838
G01 X22.92091 Y-12.27844
G01 X22.93696 Y-12.23300
G01 X22.94766 Y-12.20968
G01 X22.98601 Y-12.14747
G01 X23.00084 Y-12.12657
G01 X23.05748 Y-12.06792
G01 X23.09035 Y-12.04069
G01 X23.15972 Y-11.99766
G01 X23.19101 Y-11.98400
G01 X23.25197 Y-11.96284
G01 X23.27684 Y-11.95667
G01 X23.34936 Y-11.94786
G01 X23.37498 Y-11.94641
G01 X24.62500 Y-11.94641
G01 X24.65060 Y-11.94786
G01 X24.72312 Y-11.95667
G01 X24.74798 Y-11.96284
G01 X24.80894 Y-11.98400
G01 X24.84775 Y-12.00183
G01 X24.90246 Y-12.03602
G01 X24.92332 Y-12.05083
G01 X24.98199 Y-12.10744
G01 X25.00930 Y-12.14036
G01 X25.04374 Y-12.19495
G01 X25.05613 Y-12.21735
G01 X25.06594 Y-12.24102
G01 X25.08710 Y-12.30201
G01 X25.09469 Y-12.33528
G01 X25.10208 Y-12.39937
G01 X25.10353 Y-12.42499
G01 X25.10353 Y-13.04999
G01 X25.10208 Y-13.07559
G01 X25.09469 Y-13.13967
G01 X25.08443 Y-13.18105
G01 X25.06297 Y-13.24193
G01 X25.04816 Y-13.27269
G01 X25.01397 Y-13.32741
G01 X24.99911 Y-13.34836
G01 X24.98199 Y-13.36751
G01 X24.92332 Y-13.42413
G01 X24.90246 Y-13.43894
G01 X24.84775 Y-13.47313
G01 X24.80894 Y-13.49096
G01 X24.73150 Y-13.51653
G01 X24.70622 Y-13.52083
G01 X24.64209 Y-13.52791
G01 X23.35787 Y-13.52791
G01 X23.29373 Y-13.52083
G01 X23.26846 Y-13.51653
G01 X23.24384 Y-13.50945
G01 X23.18301 Y-13.48798
G01 X23.15225 Y-13.47315
G01 X23.09749 Y-13.43896
G01 X23.06363 Y-13.41298
G01 X23.01791 Y-13.36746
G01 X23.00084 Y-13.34839
G01 X22.95622 Y-13.28009
G01 X22.94382 Y-13.25763
G01 X22.93399 Y-13.23391
G01 X22.91283 Y-13.17292
G01 X22.90521 Y-13.13957
G01 X22.90468 Y-13.13543
G01 X22.92314 Y-13.11316
G01 X22.90468 Y-13.13543
G01 X22.14588 Y-13.11412
G01 X22.13742 Y-13.09888
G01 X22.14588 Y-13.11412
G01 X22.13275 Y-13.13779
G01 X22.12132 Y-13.15413
G01 X22.10161 Y-13.17661
G01 X22.08690 Y-13.19007
G01 X22.07108 Y-13.20221
G01 X22.04789 Y-13.21641
G01 X18.65208 Y-13.21641
G01 X18.62889 Y-13.20221
G01 X18.60558 Y-13.18349
G01 X18.58490 Y-13.16190
G01 X18.56722 Y-13.13779
G01 X18.55285 Y-13.11158
G01 X18.54200 Y-13.08372
G01 X18.53684 Y-13.06444
G01 X18.53230 Y-13.03490
G01 X18.53143 Y-13.01499
G01 X18.63855 Y-13.01499
G01 X18.64020 Y-13.03498
G01 X18.64878 Y-13.06375
G01 X18.65833 Y-13.08141
G01 X18.67774 Y-13.10434
G01 X18.69356 Y-13.11666
G01 X18.72056 Y-13.12984
G01 X18.73999 Y-13.13477
G01 X18.75998 Y-13.13642
G01 X21.93999 Y-13.13642
G01 X21.96981 Y-13.13271
G01 X21.98878 Y-13.12619
G01 X22.01459 Y-13.11082
G01 X22.02932 Y-13.09721
G01 X22.04679 Y-13.07280
G01 X22.05485 Y-13.05441
G01 X22.05977 Y-13.03498
G01 X22.06142 Y-13.00460
G01 X23.00356 Y-13.03106
G01 X23.00374 Y-13.05677
G01 X23.01055 Y-13.11915
G01 X23.01662 Y-13.14569
G01 X23.03511 Y-13.19855
G01 X23.04237 Y-13.21519
G01 X23.08182 Y-13.27795
G01 X23.09365 Y-13.29172
G01 X23.13323 Y-13.33129
G01 X23.15449 Y-13.34826
G01 X23.20191 Y-13.37805
G01 X23.21794 Y-13.38651
G01 X23.27923 Y-13.40833
G01 X23.29675 Y-13.41303
G01 X23.37498 Y-13.42141
G01 X24.63180 Y-13.42123
G01 X24.70320 Y-13.41303
G01 X24.72073 Y-13.40833
G01 X24.77356 Y-13.38984
G01 X24.79807 Y-13.37803
G01 X24.84547 Y-13.34823
G01 X24.86005 Y-13.33749
G01 X24.91247 Y-13.28509
G01 X24.92327 Y-13.27043
G01 X24.95304 Y-13.22304
G01 X24.96152 Y-13.20701
G01 X24.98331 Y-13.14569
G01 X24.98936 Y-13.11918
G01 X24.99639 Y-13.04999
G01 X24.99639 Y-12.42499
G01 X24.98801 Y-12.34676
G01 X24.98331 Y-12.32926
G01 X24.96482 Y-12.27640
G01 X24.95304 Y-12.25192
G01 X24.92327 Y-12.20452
G01 X24.91247 Y-12.18987
G01 X24.86005 Y-12.13747
G01 X24.84547 Y-12.12672
G01 X24.79807 Y-12.09693
G01 X24.77356 Y-12.08512
G01 X24.72073 Y-12.06663
G01 X24.70320 Y-12.06193
G01 X24.63180 Y-12.05372
G01 X23.37498 Y-12.05354
G01 X23.29675 Y-12.06193
G01 X23.27923 Y-12.06663
G01 X23.22640 Y-12.08512
G01 X23.20191 Y-12.09690
G01 X23.15449 Y-12.12670
G01 X23.13988 Y-12.13749
G01 X23.08748 Y-12.18989
G01 X23.07671 Y-12.20447
G01 X23.04692 Y-12.25187
G01 X23.03841 Y-12.26795
G01 X23.01392 Y-12.33795
G01 X23.00694 Y-12.38801
G01 X22.06142 Y-12.36147
G01 X22.06102 Y-12.24496
G01 X22.05772 Y-12.22517
G01 X22.04679 Y-12.19718
G01 X22.02932 Y-12.17275
G01 X22.00641 Y-12.15332
G01 X21.97941 Y-12.14013
G01 X21.95002 Y-12.13396
G01 X18.75998 Y-12.13355
G01 X18.73999 Y-12.13521
G01 X18.72056 Y-12.14013
G01 X18.70220 Y-12.14818
G01 X18.68541 Y-12.15916
G01 X18.67065 Y-12.17275
G01 X18.65833 Y-12.18857
G01 X18.64878 Y-12.20620
G01 X18.64228 Y-12.22517
G01 X18.63898 Y-12.24496
G01 X18.63855 Y-13.01499
G01 X18.53143 Y-13.01499
G01 X18.53164 Y-9.70501
G01 X18.53684 Y-9.66551
G01 X18.54200 Y-9.64626
G01 X18.55285 Y-9.61840
G01 X18.56204 Y-9.60072
G01 X18.57865 Y-9.57585
G01 X18.60558 Y-9.54649
G01 X18.62084 Y-9.53366
G01 X18.64571 Y-9.51705
G01 X18.68183 Y-9.50021
G01 X18.72031 Y-9.48990
G01 X18.75998 Y-9.48644
G01 X21.94997 Y-9.48665
G01 X21.98947 Y-9.49185
G01 X22.02746 Y-9.50384
G01 X22.06280 Y-9.52223
G01 X22.07913 Y-9.53366
G01 X22.10161 Y-9.55337
G01 X22.12132 Y-9.57585
G01 X22.13793 Y-9.60072
G01 X22.15114 Y-9.62751
G01 X22.15797 Y-9.64626
G01 X22.16330 Y-9.66640
G01 X22.14712 Y-9.68792
G01 X22.16330 Y-9.66640
G01 X22.32246 Y-9.66640
G01 X22.32584 Y-9.67456
G01 X22.32246 Y-9.66640
G01 X24.10800 Y-7.88109
G01 X24.15652 Y-7.84085
G01 X24.21044 Y-7.80819
G01 X24.25403 Y-7.78891
G01 X24.27260 Y-7.78253
G01 X24.32967 Y-7.76823
G01 X24.34902 Y-7.76514
G01 X24.40498 Y-7.76140
G01 X29.01643 Y-7.76140
G01 X29.04754 Y-7.79264
G01 X29.01643 Y-7.76140
G01 X29.01666 Y-7.54502
G01 X29.02184 Y-7.50552
G01 X29.03022 Y-7.47682
G01 X29.04226 Y-7.44946
G01 X29.05778 Y-7.42389
G01 X29.07647 Y-7.40057
G01 X29.09806 Y-7.37989
G01 X29.12219 Y-7.36222
G01 X29.15752 Y-7.34383
G01 X29.18584 Y-7.33422
G01 X29.21516 Y-7.32838
G01 X29.24498 Y-7.32643
G01 X32.67499 Y-7.32643
G01 X32.71467 Y-7.32991
G01 X32.74372 Y-7.33702
G01 X32.77159 Y-7.34784
G01 X32.79780 Y-7.36222
G01 X32.82191 Y-7.37989
G01 X32.84350 Y-7.40057
G01 X32.86222 Y-7.42389
G01 X32.87771 Y-7.44946
G01 X32.88975 Y-7.47682
G01 X32.89813 Y-7.50552
G01 X32.90334 Y-7.54502
G01 X32.90354 Y-7.77436
G01 X32.88251 Y-7.79010
G01 X32.90354 Y-7.77436
G01 X32.93151 Y-7.78215
G01 X32.96775 Y-7.79592
G01 X32.99074 Y-7.80628
G01 X33.03097 Y-7.82909
G01 X33.05170 Y-7.84349
G01 X33.08914 Y-7.87367
G01 X35.28748 Y-10.07140
G01 X35.28411 Y-10.07956
G01 X35.28748 Y-10.07140
G01 X36.29579 Y-10.07140
G01 X36.29797 Y-10.07755
G01 X36.29579 Y-10.07140
G01 X36.32746 Y-10.04372
G01 X36.35012 Y-10.02922
G01 X36.40790 Y-9.99975
G01 X36.43297 Y-9.98995
G01 X36.45903 Y-9.98314
G01 X36.51423 Y-9.97422
G01 X36.54100 Y-9.97158
G01 X37.81788 Y-9.97212
G01 X37.89091 Y-9.98314
G01 X37.91694 Y-9.98992
G01 X37.93376 Y-9.99614
G01 X38.00757 Y-10.03374
G01 X38.02969 Y-10.04915
G01 X38.04983 Y-10.06706
G01 X38.08920 Y-10.10674
G01 X38.10625 Y-10.12749
G01 X38.12073 Y-10.15012
G01 X38.15019 Y-10.20790
G01 X38.15999 Y-10.23297
G01 X38.16487 Y-10.25027
G01 X38.17783 Y-10.33206
G01 X38.17836 Y-10.65896
G01 X38.17572 Y-10.68573
G01 X38.16487 Y-10.74969
G01 X38.15999 Y-10.76698
G01 X38.15019 Y-10.79205
G01 X38.12494 Y-10.84194
G01 X38.11135 Y-10.86513
G01 X38.08915 Y-10.89330
G01 X38.03500 Y-10.94641
G01 X36.31494 Y-10.94641
G01 X36.29579 Y-10.92853
G01 X36.29873 Y-10.92106
G01 X36.29579 Y-10.92853
G01 X35.10999 Y-10.92853
G01 X35.03963 Y-10.92253
G01 X35.01324 Y-10.91728
G01 X34.96709 Y-10.90346
G01 X34.94184 Y-10.89414
G01 X34.92569 Y-10.88631
G01 X34.86818 Y-10.85378
G01 X34.80694 Y-10.80300
G01 X32.89402 Y-8.89008
G01 X32.87499 Y-8.80174
G01 X32.89402 Y-8.89008
G01 X32.88213 Y-8.92157
G01 X32.86222 Y-8.95609
G01 X32.84350 Y-8.97941
G01 X32.82940 Y-8.99350
G01 X32.81413 Y-9.00631
G01 X32.78927 Y-9.02292
G01 X32.77159 Y-9.03214
G01 X32.74372 Y-9.04296
G01 X32.71467 Y-9.05007
G01 X32.69491 Y-9.05266
G01 X29.23502 Y-9.05332
G01 X29.20530 Y-9.05007
G01 X29.16682 Y-9.03976
G01 X29.13946 Y-9.02772
G01 X29.11389 Y-9.01220
G01 X29.09057 Y-8.99350
G01 X29.06989 Y-8.97189
G01 X29.05222 Y-8.94778
G01 X29.03383 Y-8.91245
G01 X29.02184 Y-8.87446
G01 X29.01666 Y-8.83496
G01 X29.01643 Y-8.61852
G01 X29.04754 Y-8.58728
G01 X29.01643 Y-8.61852
G01 X24.58242 Y-8.61852
G01 X24.57907 Y-8.61037
G01 X24.58242 Y-8.61852
G01 X22.78840 Y-10.41123
G01 X22.75845 Y-10.43643
G01 X22.71298 Y-10.46673
G01 X22.66396 Y-10.49089
G01 X22.62025 Y-10.50600
G01 X22.58210 Y-10.51504
G01 X22.51827 Y-10.52312
G01 X22.16333 Y-10.52342
G01 X22.14888 Y-10.50333
G01 X22.16333 Y-10.52342
G01 X22.15477 Y-10.55317
G01 X22.13793 Y-10.58926
G01 X22.12132 Y-10.61413
G01 X22.10161 Y-10.63661
G01 X22.07913 Y-10.65632
G01 X22.04789 Y-10.67641
G01 X18.65208 Y-10.67641
G01 X18.62889 Y-10.66221
G01 X18.61307 Y-10.65007
G01 X18.58490 Y-10.62190
G01 X18.56204 Y-10.58926
G01 X18.54883 Y-10.56246
G01 X18.54200 Y-10.54372
G01 X18.53339 Y-10.50483
G01 X18.53143 Y-10.47499
G01 X18.63855 Y-10.47499
G01 X18.64020 Y-10.49498
G01 X18.64878 Y-10.52378
G01 X18.66415 Y-10.54959
G01 X18.67774 Y-10.56434
G01 X18.69356 Y-10.57666
G01 X18.72056 Y-10.58984
G01 X18.73999 Y-10.59477
G01 X18.75998 Y-10.59642
G01 X21.93999 Y-10.59642
G01 X21.96981 Y-10.59271
G01 X21.99780 Y-10.58179
G01 X22.02223 Y-10.56434
G01 X22.04164 Y-10.54141
G01 X22.05119 Y-10.52378
G01 X22.05977 Y-10.49498
G01 X22.06142 Y-10.47499
G01 X22.06142 Y-10.41634
G01 X22.51875 Y-10.41583
G01 X22.57323 Y-10.40788
G01 X22.61459 Y-10.39505
G01 X22.63110 Y-10.38822
G01 X22.66521 Y-10.37067
G01 X22.69678 Y-10.34885
G01 X22.71268 Y-10.33546
G01 X24.53808 Y-8.51139
G01 X29.12356 Y-8.51139
G01 X29.12356 Y-8.82498
G01 X29.12727 Y-8.85480
G01 X29.13377 Y-8.87377
G01 X29.14333 Y-8.89140
G01 X29.15564 Y-8.90722
G01 X29.17040 Y-8.92081
G01 X29.18719 Y-8.93178
G01 X29.20556 Y-8.93983
G01 X29.22501 Y-8.94476
G01 X29.24498 Y-8.94641
G01 X32.68502 Y-8.94601
G01 X32.70479 Y-8.94271
G01 X32.72376 Y-8.93620
G01 X32.74957 Y-8.92081
G01 X32.77083 Y-8.89958
G01 X32.78180 Y-8.88279
G01 X32.78985 Y-8.86442
G01 X32.79478 Y-8.84497
G01 X32.79643 Y-8.82498
G01 X32.79643 Y-8.64100
G01 X34.88268 Y-10.72726
G01 X34.92182 Y-10.76013
G01 X34.94161 Y-10.77336
G01 X34.99066 Y-10.79840
G01 X35.04339 Y-10.81438
G01 X35.10999 Y-10.82139
G01 X36.34034 Y-10.82139
G01 X36.37597 Y-10.85720
G01 X36.39045 Y-10.86957
G01 X36.40666 Y-10.87951
G01 X36.44847 Y-10.90082
G01 X36.47526 Y-10.91070
G01 X36.54044 Y-10.92103
G01 X37.79998 Y-10.92139
G01 X37.81895 Y-10.91992
G01 X37.86530 Y-10.91258
G01 X37.88385 Y-10.90813
G01 X37.90145 Y-10.90084
G01 X37.94328 Y-10.87953
G01 X37.95951 Y-10.86955
G01 X37.97402 Y-10.85718
G01 X38.00719 Y-10.82401
G01 X38.01956 Y-10.80953
G01 X38.02951 Y-10.79330
G01 X38.05481 Y-10.74283
G01 X38.06259 Y-10.71532
G01 X38.06993 Y-10.66897
G01 X38.07140 Y-10.64999
G01 X38.07140 Y-10.34999
G01 X38.06993 Y-10.33099
G01 X38.06259 Y-10.28464
G01 X38.05812 Y-10.26610
G01 X38.05083 Y-10.24847
G01 X38.02951 Y-10.20666
G01 X38.01958 Y-10.19045
G01 X38.00721 Y-10.17598
G01 X37.97404 Y-10.14278
G01 X37.95954 Y-10.13038
G01 X37.94328 Y-10.12040
G01 X37.89279 Y-10.09510
G01 X37.86530 Y-10.08736
G01 X37.81895 Y-10.08002
G01 X37.79998 Y-10.07854
G01 X36.54999 Y-10.07854
G01 X36.53099 Y-10.08002
G01 X36.47526 Y-10.08924
G01 X36.44847 Y-10.09912
G01 X36.40666 Y-10.12043
G01 X36.39043 Y-10.13038
G01 X36.37595 Y-10.14275
G01 X36.34036 Y-10.17854
G01 X35.24311 Y-10.17854
G01 X33.02015 Y-7.95589
G01 X32.97855 Y-7.92269
G01 X32.92919 Y-7.89587
G01 X32.89470 Y-7.88281
G01 X32.85975 Y-7.87415
G01 X32.79643 Y-7.86854
G01 X32.79643 Y-7.55498
G01 X32.79478 Y-7.53501
G01 X32.78619 Y-7.50621
G01 X32.77083 Y-7.48040
G01 X32.75724 Y-7.46564
G01 X32.74141 Y-7.45333
G01 X32.71441 Y-7.44014
G01 X32.69498 Y-7.43522
G01 X32.67499 Y-7.43356
G01 X29.23497 Y-7.43397
G01 X29.21518 Y-7.43727
G01 X29.19621 Y-7.44377
G01 X29.17858 Y-7.45333
G01 X29.16273 Y-7.46564
G01 X29.14917 Y-7.48040
G01 X29.13819 Y-7.49719
G01 X29.12727 Y-7.52518
G01 X29.12356 Y-7.55498
G01 X29.12356 Y-7.86854
G01 X24.40498 Y-7.86854
G01 X24.35291 Y-7.87283
G01 X24.30140 Y-7.88573
G01 X24.26147 Y-7.90255
G01 X24.24572 Y-7.91098
G01 X24.21349 Y-7.93179
G01 X24.17768 Y-7.96267
G01 X22.36683 Y-9.77354
G01 X22.06142 Y-9.77354
G01 X22.06142 Y-9.71499
G01 X22.05977 Y-9.69500
G01 X22.05485 Y-9.67555
G01 X22.04164 Y-9.64857
G01 X22.02223 Y-9.62563
G01 X22.00641 Y-9.61332
G01 X21.97941 Y-9.60013
G01 X21.95002 Y-9.59396
G01 X18.75998 Y-9.59355
G01 X18.73999 Y-9.59521
G01 X18.72056 Y-9.60013
G01 X18.69356 Y-9.61332
G01 X18.67774 Y-9.62563
G01 X18.66415 Y-9.64039
G01 X18.65318 Y-9.65718
G01 X18.64512 Y-9.67555
G01 X18.63898 Y-9.70496
G01 X18.63855 Y-10.47499
G01 X18.53143 Y-10.47499
G01 X18.53143 Y-10.98499
G01 X18.53339 Y-10.95515
G01 X18.53923 Y-10.92584
G01 X18.54883 Y-10.89751
G01 X18.56204 Y-10.87072
G01 X18.57865 Y-10.84585
G01 X18.59836 Y-10.82337
G01 X18.62084 Y-10.80366
G01 X18.65211 Y-10.78354
G01 X22.04786 Y-10.78354
G01 X22.07913 Y-10.80366
G01 X22.10161 Y-10.82337
G01 X22.12132 Y-10.84585
G01 X22.13793 Y-10.87072
G01 X22.15477 Y-10.90681
G01 X22.16330 Y-10.93640
G01 X22.14885 Y-10.95652
G01 X22.16330 Y-10.93640
G01 X22.82248 Y-10.93640
G01 X22.82586 Y-10.94456
G01 X22.82248 Y-10.93640
G01 X23.34997 Y-10.40991
G01 X23.38575 Y-10.38139
G01 X23.44044 Y-10.34819
G01 X23.49058 Y-10.32647
G01 X23.55411 Y-10.30912
G01 X23.61258 Y-10.30252
G01 X23.63498 Y-10.30140
G01 X26.09644 Y-10.30140
G01 X26.12774 Y-10.33275
G01 X26.09644 Y-10.30140
G01 X26.09665 Y-10.08502
G01 X26.09990 Y-10.05530
G01 X26.11018 Y-10.01682
G01 X26.12225 Y-9.98946
G01 X26.13774 Y-9.96389
G01 X26.15646 Y-9.94057
G01 X26.17805 Y-9.91989
G01 X26.20218 Y-9.90222
G01 X26.22837 Y-9.88784
G01 X26.25626 Y-9.87702
G01 X26.28527 Y-9.86991
G01 X26.32497 Y-9.86643
G01 X29.76496 Y-9.86666
G01 X29.80446 Y-9.87184
G01 X29.83316 Y-9.88022
G01 X29.86052 Y-9.89226
G01 X29.88607 Y-9.90778
G01 X29.90939 Y-9.92647
G01 X29.93006 Y-9.94806
G01 X29.95292 Y-9.98070
G01 X29.96613 Y-10.00752
G01 X29.97812 Y-10.04552
G01 X29.98333 Y-10.08502
G01 X29.98353 Y-10.30140
G01 X29.95244 Y-10.33264
G01 X29.98353 Y-10.30140
G01 X32.99998 Y-10.30140
G01 X33.06285 Y-10.30605
G01 X33.12437 Y-10.31987
G01 X33.18319 Y-10.34255
G01 X33.22373 Y-10.36480
G01 X33.24497 Y-10.37844
G01 X33.28914 Y-10.41367
G01 X33.94746 Y-11.07140
G01 X33.94408 Y-11.07956
G01 X33.94746 Y-11.07140
G01 X36.29579 Y-11.07140
G01 X36.29873 Y-11.07887
G01 X36.29579 Y-11.07140
G01 X36.31496 Y-11.05352
G01 X38.03500 Y-11.05352
G01 X38.09515 Y-11.11341
G01 X38.10625 Y-11.12749
G01 X38.12073 Y-11.15012
G01 X38.15019 Y-11.20790
G01 X38.15999 Y-11.23297
G01 X38.16680 Y-11.25903
G01 X38.17572 Y-11.31423
G01 X38.17854 Y-11.34999
G01 X38.17783 Y-11.66790
G01 X38.16487 Y-11.74968
G01 X38.15705 Y-11.77547
G01 X38.14625 Y-11.80013
G01 X38.12073 Y-11.84984
G01 X38.10084 Y-11.87961
G01 X38.08301 Y-11.89970
G01 X38.03503 Y-11.94641
G01 X36.31491 Y-11.94641
G01 X36.29576 Y-11.92853
G01 X36.29871 Y-11.92106
G01 X36.29576 Y-11.92853
G01 X33.76999 Y-11.92853
G01 X33.72983 Y-11.92662
G01 X33.66404 Y-11.91522
G01 X33.62736 Y-11.90409
G01 X33.60997 Y-11.89723
G01 X33.57461 Y-11.88133
G01 X33.54136 Y-11.86231
G01 X33.52574 Y-11.85205
G01 X33.48782 Y-11.82246
G01 X32.82249 Y-11.15852
G01 X32.82584 Y-11.15040
G01 X32.82249 Y-11.15852
G01 X29.98353 Y-11.15852
G01 X29.95244 Y-11.12728
G01 X29.98353 Y-11.15852
G01 X29.98333 Y-11.37496
G01 X29.97812 Y-11.41446
G01 X29.96613 Y-11.45245
G01 X29.95292 Y-11.47928
G01 X29.93631 Y-11.50412
G01 X29.90939 Y-11.53350
G01 X29.88607 Y-11.55220
G01 X29.86052 Y-11.56772
G01 X29.83316 Y-11.57976
G01 X29.79468 Y-11.59007
G01 X29.76496 Y-11.59332
G01 X26.30508 Y-11.59266
G01 X26.26581 Y-11.58575
G01 X26.23749 Y-11.57615
G01 X26.21069 Y-11.56292
G01 X26.18585 Y-11.54631
G01 X26.15646 Y-11.51941
G01 X26.13774 Y-11.49609
G01 X26.12225 Y-11.47051
G01 X26.11018 Y-11.44316
G01 X26.09990 Y-11.40468
G01 X26.09665 Y-11.37496
G01 X26.09644 Y-11.15852
G01 X26.12753 Y-11.12728
G01 X26.09644 Y-11.15852
G01 X23.81247 Y-11.15852
G01 X23.80910 Y-11.15037
G01 X23.81247 Y-11.15852
G01 X23.29693 Y-11.67384
G01 X23.26081 Y-11.70493
G01 X23.24491 Y-11.71641
G01 X23.20298 Y-11.74181
G01 X23.17913 Y-11.75426
G01 X23.12556 Y-11.77417
G01 X23.10138 Y-11.78133
G01 X23.05543 Y-11.78987
G01 X23.00839 Y-11.79337
G01 X22.16330 Y-11.79352
G01 X22.14885 Y-11.77341
G01 X22.16330 Y-11.79352
G01 X22.15477 Y-11.82317
G01 X22.13793 Y-11.85926
G01 X22.12132 Y-11.88413
G01 X22.10161 Y-11.90661
G01 X22.07913 Y-11.92632
G01 X22.04789 Y-11.94641
G01 X18.65208 Y-11.94641
G01 X18.62889 Y-11.93221
G01 X18.60558 Y-11.91349
G01 X18.58490 Y-11.89190
G01 X18.57276 Y-11.87607
G01 X18.56204 Y-11.85926
G01 X18.54883 Y-11.83246
G01 X18.54200 Y-11.81372
G01 X18.53491 Y-11.78469
G01 X18.53143 Y-11.74499
G01 X18.63855 Y-11.74499
G01 X18.64020 Y-11.76498
G01 X18.64878 Y-11.79378
G01 X18.66415 Y-11.81959
G01 X18.67774 Y-11.83434
G01 X18.69356 Y-11.84666
G01 X18.72056 Y-11.85984
G01 X18.73999 Y-11.86477
G01 X18.75998 Y-11.86642
G01 X21.93999 Y-11.86642
G01 X21.95998 Y-11.86477
G01 X21.97941 Y-11.85984
G01 X22.00641 Y-11.84666
G01 X22.02932 Y-11.82723
G01 X22.04679 Y-11.80280
G01 X22.05485 Y-11.78441
G01 X22.05977 Y-11.76498
G01 X22.06142 Y-11.74499
G01 X22.06142 Y-11.68639
G01 X22.99998 Y-11.68639
G01 X23.04565 Y-11.68314
G01 X23.07224 Y-11.67808
G01 X23.08946 Y-11.67331
G01 X23.13379 Y-11.65718
G01 X23.18741 Y-11.62601
G01 X23.22726 Y-11.59226
G01 X23.76810 Y-11.05139
G01 X26.20355 Y-11.05139
G01 X26.20355 Y-11.36498
G01 X26.20726 Y-11.39480
G01 X26.21377 Y-11.41377
G01 X26.22332 Y-11.43140
G01 X26.23563 Y-11.44722
G01 X26.25039 Y-11.46081
G01 X26.26718 Y-11.47178
G01 X26.28555 Y-11.47983
G01 X26.30500 Y-11.48476
G01 X26.32497 Y-11.48641
G01 X29.76502 Y-11.48601
G01 X29.78480 Y-11.48270
G01 X29.80378 Y-11.47620
G01 X29.82958 Y-11.46081
G01 X29.84434 Y-11.44722
G01 X29.85666 Y-11.43140
G01 X29.86618 Y-11.41377
G01 X29.87271 Y-11.39480
G01 X29.87642 Y-11.36498
G01 X29.87642 Y-11.05139
G01 X32.86684 Y-11.05139
G01 X33.55523 Y-11.73914
G01 X33.59015 Y-11.76640
G01 X33.62648 Y-11.78738
G01 X33.66028 Y-11.80211
G01 X33.68612 Y-11.81019
G01 X33.73699 Y-11.81969
G01 X33.76999 Y-11.82139
G01 X36.34034 Y-11.82139
G01 X36.37595 Y-11.85720
G01 X36.39045 Y-11.86960
G01 X36.40671 Y-11.87955
G01 X36.44852 Y-11.90084
G01 X36.47529 Y-11.91069
G01 X36.54044 Y-11.92103
G01 X37.79998 Y-11.92139
G01 X37.81895 Y-11.91992
G01 X37.86530 Y-11.91257
G01 X37.88382 Y-11.90813
G01 X37.90140 Y-11.90087
G01 X37.94323 Y-11.87958
G01 X37.95951 Y-11.86960
G01 X37.97404 Y-11.85718
G01 X38.00721 Y-11.82398
G01 X38.01958 Y-11.80950
G01 X38.02951 Y-11.79330
G01 X38.05083 Y-11.75149
G01 X38.06071 Y-11.72469
G01 X38.06993 Y-11.66896
G01 X38.07140 Y-11.64999
G01 X38.07140 Y-11.34999
G01 X38.06993 Y-11.33099
G01 X38.06259 Y-11.28464
G01 X38.05812 Y-11.26609
G01 X38.05083 Y-11.24847
G01 X38.02951 Y-11.20666
G01 X38.01958 Y-11.19045
G01 X38.00721 Y-11.17597
G01 X37.97404 Y-11.14278
G01 X37.95954 Y-11.13038
G01 X37.94328 Y-11.12040
G01 X37.89279 Y-11.09510
G01 X37.87465 Y-11.08923
G01 X37.81895 Y-11.08001
G01 X37.79998 Y-11.07854
G01 X36.54044 Y-11.07890
G01 X36.47526 Y-11.08923
G01 X36.44847 Y-11.09911
G01 X36.40666 Y-11.12042
G01 X36.39043 Y-11.13038
G01 X36.37595 Y-11.14275
G01 X36.34036 Y-11.17854
G01 X33.90311 Y-11.17854
G01 X33.21472 Y-10.49078
G01 X33.17855 Y-10.46269
G01 X33.14535 Y-10.44351
G01 X33.12919 Y-10.43587
G01 X33.09328 Y-10.42236
G01 X33.04713 Y-10.41202
G01 X32.99998 Y-10.40854
G01 X29.87642 Y-10.40854
G01 X29.87642 Y-10.09498
G01 X29.87271 Y-10.06518
G01 X29.86618 Y-10.04621
G01 X29.85666 Y-10.02858
G01 X29.84434 Y-10.01273
G01 X29.82958 Y-9.99917
G01 X29.81279 Y-9.98819
G01 X29.79443 Y-9.98014
G01 X29.77497 Y-9.97521
G01 X29.75498 Y-9.97356
G01 X26.32497 Y-9.97356
G01 X26.30500 Y-9.97521
G01 X26.27620 Y-9.98377
G01 X26.25857 Y-9.99333
G01 X26.24275 Y-10.00564
G01 X26.22913 Y-10.02040
G01 X26.21816 Y-10.03719
G01 X26.20726 Y-10.06518
G01 X26.20355 Y-10.09498
G01 X26.20355 Y-10.40854
G01 X23.63498 Y-10.40854
G01 X23.57714 Y-10.41382
G01 X23.53521 Y-10.42462
G01 X23.51837 Y-10.43064
G01 X23.48344 Y-10.44649
G01 X23.44468 Y-10.47090
G01 X23.41910 Y-10.49177
G01 X22.86683 Y-11.04354
G01 X22.06142 Y-11.04354
G01 X22.06142 Y-10.98499
G01 X22.05977 Y-10.96500
G01 X22.05485 Y-10.94555
G01 X22.04164 Y-10.91857
G01 X22.02223 Y-10.89563
G01 X22.00641 Y-10.88332
G01 X21.97941 Y-10.87013
G01 X21.95002 Y-10.86396
G01 X18.75998 Y-10.86355
G01 X18.73999 Y-10.86521
G01 X18.72056 Y-10.87013
G01 X18.70220 Y-10.87819
G01 X18.68541 Y-10.88916
G01 X18.67065 Y-10.90275
G01 X18.65833 Y-10.91857
G01 X18.64878 Y-10.93620
G01 X18.64228 Y-10.95517
G01 X18.63898 Y-10.97496
G01 X18.63855 Y-11.74499
G04 P0 ( dwell for no time -- G64 should not smooth over this point )
G00 Z5.00000 ( retract )

G00 X22.89642 Y-15.97500 ( rapid move to begin. )
G01 F100.00000
( Mill infeed pass 1/1 )
G01 Z-0.08000
G04 P0 ( dwell for no time -- G64 should not smooth over this point )
G01 F300.00000
G01 X22.89642 Y-15.97500
G01 X22.90409 Y-16.05613
G01 X22.90841 Y-16.08145
G01 X22.91550 Y-16.10611
G01 X22.93699 Y-16.16697
G01 X22.95182 Y-16.19776
G01 X22.98601 Y-16.25247
G01 X23.00082 Y-16.27332
G01 X23.01786 Y-16.29240
G01 X23.06361 Y-16.33794
G01 X23.08339 Y-16.35435
G01 X23.14499 Y-16.39380
G01 X23.16739 Y-16.40614
G01 X23.19101 Y-16.41594
G01 X23.26846 Y-16.44152
G01 X23.29373 Y-16.44581
G01 X23.36643 Y-16.45336
G01 X24.62500 Y-16.45354
G01 X24.65060 Y-16.45209
G01 X24.71471 Y-16.44470
G01 X24.75611 Y-16.43443
G01 X24.81694 Y-16.41297
G01 X24.84770 Y-16.39816
G01 X24.90239 Y-16.36398
G01 X24.92332 Y-16.34914
G01 X24.94244 Y-16.33205
G01 X24.98799 Y-16.28630
G01 X25.01397 Y-16.25239
G01 X25.04816 Y-16.19771
G01 X25.06297 Y-16.16695
G01 X25.08910 Y-16.09103
G01 X25.07491 Y-16.07111
G01 X25.08910 Y-16.09103
G01 X25.82334 Y-16.09103
G01 X25.82639 Y-16.08338
G01 X25.82334 Y-16.09103
G01 X25.87953 Y-16.14442
G01 X25.93447 Y-16.18165
G01 X25.95166 Y-16.19110
G01 X25.98745 Y-16.20721
G01 X26.01105 Y-16.21615
G01 X26.05562 Y-16.22849
G01 X26.09644 Y-16.23492
G01 X26.12189 Y-16.21307
G01 X26.09644 Y-16.23492
G01 X26.09665 Y-16.45496
G01 X26.10185 Y-16.49446
G01 X26.11382 Y-16.53245
G01 X26.12705 Y-16.55928
G01 X26.14364 Y-16.58412
G01 X26.17059 Y-16.61350
G01 X26.19390 Y-16.63220
G01 X26.21945 Y-16.64772
G01 X26.24681 Y-16.65976
G01 X26.28527 Y-16.67007
G01 X26.31501 Y-16.67332
G01 X29.75498 Y-16.67355
G01 X29.78483 Y-16.67159
G01 X29.81414 Y-16.66575
G01 X29.84246 Y-16.65615
G01 X29.86926 Y-16.64292
G01 X29.90190 Y-16.62008
G01 X29.92349 Y-16.59941
G01 X29.94221 Y-16.57609
G01 X29.95773 Y-16.55051
G01 X29.96976 Y-16.52316
G01 X29.98008 Y-16.48468
G01 X29.98333 Y-16.45496
G01 X29.98353 Y-16.23852
G01 X29.95244 Y-16.20728
G01 X29.98353 Y-16.23852
G01 X33.29998 Y-16.23852
G01 X33.32236 Y-16.23741
G01 X33.38083 Y-16.23080
G01 X33.44436 Y-16.21345
G01 X33.50199 Y-16.18793
G01 X33.55525 Y-16.15417
G01 X33.59694 Y-16.11884
G01 X35.78748 Y-13.92855
G01 X35.78410 Y-13.92039
G01 X35.78748 Y-13.92855
G01 X36.29579 Y-13.92855
G01 X36.29797 Y-13.92240
G01 X36.29579 Y-13.92855
G01 X36.32746 Y-13.95623
G01 X36.35012 Y-13.97074
G01 X36.40790 Y-14.00020
G01 X36.43297 Y-14.01000
G01 X36.45903 Y-14.01681
G01 X36.51423 Y-14.02573
G01 X36.54100 Y-14.02837
G01 X37.79998 Y-14.02855
G01 X37.83571 Y-14.02573
G01 X37.89091 Y-14.01681
G01 X37.90836 Y-14.01262
G01 X37.94199 Y-14.00023
G01 X37.99982 Y-13.97076
G01 X38.02969 Y-13.95080
G01 X38.04983 Y-13.93289
G01 X38.08920 Y-13.89322
G01 X38.11138 Y-13.86510
G01 X38.12073 Y-13.84983
G01 X38.14625 Y-13.80012
G01 X38.15999 Y-13.76698
G01 X38.16838 Y-13.73208
G01 X38.17694 Y-13.67683
G01 X38.17854 Y-13.64999
G01 X38.17836 Y-13.34099
G01 X38.17572 Y-13.31422
G01 X38.16680 Y-13.25900
G01 X38.15999 Y-13.23297
G01 X38.15019 Y-13.20790
G01 X38.12494 Y-13.15801
G01 X38.11138 Y-13.13485
G01 X38.08920 Y-13.10673
G01 X38.03503 Y-13.05352
G01 X36.31496 Y-13.05352
G01 X36.29576 Y-13.07142
G01 X36.29871 Y-13.07887
G01 X36.29576 Y-13.07142
G01 X35.59317 Y-13.07206
G01 X35.54524 Y-13.07633
G01 X35.50856 Y-13.08362
G01 X35.43907 Y-13.10719
G01 X35.41476 Y-13.11869
G01 X35.36503 Y-13.14854
G01 X35.34156 Y-13.16624
G01 X35.30694 Y-13.19695
G01 X33.12246 Y-15.38140
G01 X33.12584 Y-15.38956
G01 X33.12246 Y-15.38140
G01 X29.98353 Y-15.38140
G01 X29.95244 Y-15.41264
G01 X29.98353 Y-15.38140
G01 X29.98333 Y-15.16502
G01 X29.97812 Y-15.12552
G01 X29.96613 Y-15.08752
G01 X29.95292 Y-15.06070
G01 X29.93006 Y-15.02806
G01 X29.90190 Y-14.99989
G01 X29.87779 Y-14.98222
G01 X29.84246 Y-14.96383
G01 X29.81414 Y-14.95422
G01 X29.78483 Y-14.94838
G01 X29.75498 Y-14.94643
G01 X26.30508 Y-14.94729
G01 X26.27551 Y-14.95184
G01 X26.24681 Y-14.96022
G01 X26.22837 Y-14.96784
G01 X26.20218 Y-14.98222
G01 X26.17805 Y-14.99989
G01 X26.15646 Y-15.02057
G01 X26.13774 Y-15.04389
G01 X26.12225 Y-15.06946
G01 X26.10701 Y-15.10627
G01 X26.09840 Y-15.14516
G01 X26.09644 Y-15.17498
G01 X26.09644 Y-15.24498
G01 X26.13271 Y-15.28646
G01 X26.09644 Y-15.24498
G01 X26.04902 Y-15.23677
G01 X26.02954 Y-15.23510
G01 X25.08915 Y-15.23408
G01 X25.07496 Y-15.25397
G01 X25.08915 Y-15.23408
G01 X25.06594 Y-15.16601
G01 X25.05230 Y-15.13477
G01 X25.01402 Y-15.07256
G01 X24.99914 Y-15.05161
G01 X24.98199 Y-15.03243
G01 X24.92990 Y-14.98125
G01 X24.90960 Y-14.96568
G01 X24.84775 Y-14.92682
G01 X24.80894 Y-14.90899
G01 X24.74798 Y-14.88783
G01 X24.72306 Y-14.88166
G01 X24.65050 Y-14.87284
G01 X24.62500 Y-14.87142
G01 X23.37498 Y-14.87142
G01 X23.29383 Y-14.87909
G01 X23.26020 Y-14.88547
G01 X23.19101 Y-14.90899
G01 X23.16734 Y-14.91879
G01 X23.09749 Y-14.96098
G01 X23.06363 Y-14.98697
G01 X23.01791 Y-15.03248
G01 X23.00082 Y-15.05158
G01 X22.98598 Y-15.07249
G01 X22.95180 Y-15.12725
G01 X22.93399 Y-15.16601
G01 X22.91550 Y-15.21884
G01 X22.90841 Y-15.24351
G01 X22.90409 Y-15.26883
G01 X22.89706 Y-15.33294
G01 X22.89642 Y-15.97500
G01 X23.00356 Y-15.97500
G01 X23.00374 Y-15.34317
G01 X23.01055 Y-15.28079
G01 X23.01392 Y-15.26291
G01 X23.03843 Y-15.19293
G01 X23.04689 Y-15.17691
G01 X23.07669 Y-15.12948
G01 X23.08748 Y-15.11488
G01 X23.13323 Y-15.06865
G01 X23.15449 Y-15.05168
G01 X23.20191 Y-15.02189
G01 X23.21794 Y-15.01343
G01 X23.27923 Y-14.99161
G01 X23.30580 Y-14.98554
G01 X23.36818 Y-14.97874
G01 X24.62500 Y-14.97856
G01 X24.70315 Y-14.98691
G01 X24.72073 Y-14.99161
G01 X24.77356 Y-15.01010
G01 X24.79807 Y-15.02192
G01 X24.84547 Y-15.05171
G01 X24.86005 Y-15.06245
G01 X24.91247 Y-15.11488
G01 X24.92329 Y-15.12954
G01 X24.95306 Y-15.17696
G01 X24.96482 Y-15.20139
G01 X24.98331 Y-15.25422
G01 X24.98801 Y-15.27175
G01 X24.99604 Y-15.34114
G01 X26.02662 Y-15.34218
G01 X26.07666 Y-15.35031
G01 X26.11656 Y-15.36314
G01 X26.15672 Y-15.38194
G01 X26.18105 Y-15.39690
G01 X26.20355 Y-15.41496
G01 X26.20355 Y-15.17498
G01 X26.20521 Y-15.15501
G01 X26.21013 Y-15.13556
G01 X26.21816 Y-15.11719
G01 X26.22913 Y-15.10040
G01 X26.25039 Y-15.07917
G01 X26.27620 Y-15.06377
G01 X26.29515 Y-15.05727
G01 X26.31496 Y-15.05397
G01 X29.75498 Y-15.05356
G01 X29.77497 Y-15.05521
G01 X29.79443 Y-15.06014
G01 X29.81279 Y-15.06819
G01 X29.82958 Y-15.07917
G01 X29.84434 Y-15.09273
G01 X29.85666 Y-15.10858
G01 X29.86618 Y-15.12621
G01 X29.87271 Y-15.14518
G01 X29.87642 Y-15.17498
G01 X29.87642 Y-15.48854
G01 X33.16684 Y-15.48854
G01 X35.38268 Y-13.27269
G01 X35.42254 Y-13.23891
G01 X35.47615 Y-13.20777
G01 X35.53770 Y-13.18684
G01 X35.56429 Y-13.18181
G01 X35.60999 Y-13.17856
G01 X36.34034 Y-13.17856
G01 X36.37595 Y-13.14275
G01 X36.39045 Y-13.13035
G01 X36.40671 Y-13.12040
G01 X36.44852 Y-13.09911
G01 X36.47529 Y-13.08925
G01 X36.53099 Y-13.08003
G01 X36.54999 Y-13.07856
G01 X37.80950 Y-13.07892
G01 X37.86530 Y-13.08738
G01 X37.88382 Y-13.09182
G01 X37.90140 Y-13.09906
G01 X37.94323 Y-13.12034
G01 X37.95951 Y-13.13035
G01 X37.97404 Y-13.14277
G01 X38.01369 Y-13.18296
G01 X38.02487 Y-13.19832
G01 X38.05083 Y-13.24846
G01 X38.05812 Y-13.26606
G01 X38.06259 Y-13.28461
G01 X38.07104 Y-13.34044
G01 X38.07140 Y-13.64999
G01 X38.06993 Y-13.66896
G01 X38.06071 Y-13.72469
G01 X38.05083 Y-13.75148
G01 X38.02487 Y-13.80160
G01 X38.01369 Y-13.81699
G01 X37.97404 Y-13.85717
G01 X37.95954 Y-13.86957
G01 X37.94328 Y-13.87955
G01 X37.89279 Y-13.90485
G01 X37.87465 Y-13.91072
G01 X37.81895 Y-13.91994
G01 X37.79998 Y-13.92141
G01 X36.54044 Y-13.92105
G01 X36.47526 Y-13.91072
G01 X36.44847 Y-13.90084
G01 X36.40666 Y-13.87953
G01 X36.39043 Y-13.86957
G01 X36.37595 Y-13.85720
G01 X36.34036 Y-13.82141
G01 X35.74311 Y-13.82141
G01 X33.52726 Y-16.03726
G01 X33.49145 Y-16.06814
G01 X33.45150 Y-16.09344
G01 X33.40826 Y-16.11262
G01 X33.35779 Y-16.12610
G01 X33.29998 Y-16.13139
G01 X29.87642 Y-16.13139
G01 X29.87642 Y-16.44498
G01 X29.87271 Y-16.47480
G01 X29.86618 Y-16.49377
G01 X29.85666 Y-16.51140
G01 X29.84434 Y-16.52722
G01 X29.82958 Y-16.54081
G01 X29.80378 Y-16.55620
G01 X29.78480 Y-16.56270
G01 X29.76502 Y-16.56601
G01 X26.32497 Y-16.56641
G01 X26.30500 Y-16.56476
G01 X26.28555 Y-16.55983
G01 X26.26718 Y-16.55178
G01 X26.25039 Y-16.54081
G01 X26.23563 Y-16.52722
G01 X26.22332 Y-16.51140
G01 X26.21377 Y-16.49377
G01 X26.20726 Y-16.47480
G01 X26.20355 Y-16.44498
G01 X26.20355 Y-16.13124
G01 X26.13012 Y-16.13093
G01 X26.09357 Y-16.12664
G01 X26.04765 Y-16.11531
G01 X26.03086 Y-16.10929
G01 X25.99159 Y-16.09100
G01 X25.94681 Y-16.06105
G01 X25.86728 Y-15.98389
G01 X24.99604 Y-15.98389
G01 X24.98801 Y-16.05321
G01 X24.98331 Y-16.07073
G01 X24.96482 Y-16.12356
G01 X24.95304 Y-16.14802
G01 X24.92327 Y-16.19542
G01 X24.91250 Y-16.21005
G01 X24.86005 Y-16.26250
G01 X24.84542 Y-16.27327
G01 X24.79802 Y-16.30304
G01 X24.78199 Y-16.31152
G01 X24.72073 Y-16.33332
G01 X24.69421 Y-16.33936
G01 X24.62500 Y-16.34640
G01 X23.37498 Y-16.34640
G01 X23.29675 Y-16.33802
G01 X23.27923 Y-16.33332
G01 X23.22640 Y-16.31483
G01 X23.20196 Y-16.30307
G01 X23.15454 Y-16.27330
G01 X23.13320 Y-16.25628
G01 X23.09363 Y-16.21668
G01 X23.08182 Y-16.20296
G01 X23.04692 Y-16.14808
G01 X23.03843 Y-16.13202
G01 X23.01662 Y-16.07073
G01 X23.01192 Y-16.05316
G01 X23.00356 Y-15.97500
G04 P0 ( dwell for no time -- G64 should not smooth over this point )
G00 Z5.00000 ( retract )

G00 X32.84004 Y-12.91618 ( rapid move to begin. )
G01 F100.00000
( Mill infeed pass 1/1 )
G01 Z-0.08000
G04 P0 ( dwell for no time -- G64 should not smooth over this point )
G01 F300.00000
G01 X32.84004 Y-12.91618
G01 X32.90354 Y-12.76040
G01 X33.47408 Y-12.19012
G01 X33.49506 Y-12.17160
G01 X33.53189 Y-12.14364
G01 X33.58675 Y-12.11255
G01 X33.64558 Y-12.08987
G01 X33.69056 Y-12.07912
G01 X33.71543 Y-12.07496
G01 X33.76999 Y-12.07140
G01 X36.29579 Y-12.07140
G01 X36.29873 Y-12.07887
G01 X36.29579 Y-12.07140
G01 X36.31496 Y-12.05352
G01 X38.03500 Y-12.05352
G01 X38.09515 Y-12.11341
G01 X38.11138 Y-12.13485
G01 X38.12494 Y-12.15801
G01 X38.15019 Y-12.20790
G01 X38.15999 Y-12.23297
G01 X38.16680 Y-12.25903
G01 X38.17694 Y-12.32311
G01 X38.17854 Y-12.34999
G01 X38.17836 Y-12.65895
G01 X38.17572 Y-12.68573
G01 X38.16487 Y-12.74966
G01 X38.15999 Y-12.76698
G01 X38.15019 Y-12.79202
G01 X38.12494 Y-12.84194
G01 X38.11138 Y-12.86507
G01 X38.08920 Y-12.89322
G01 X38.03503 Y-12.94638
G01 X36.31494 Y-12.94638
G01 X36.29576 Y-12.92852
G01 X36.29871 Y-12.92106
G01 X36.29576 Y-12.92852
G01 X33.94748 Y-12.92852
G01 X33.94410 Y-12.92037
G01 X33.94748 Y-12.92852
G01 X33.30301 Y-13.57300
G01 X33.24268 Y-13.62311
G01 X33.20364 Y-13.64704
G01 X33.15134 Y-13.67084
G01 X33.10590 Y-13.68522
G01 X33.04911 Y-13.69563
G01 X33.02020 Y-13.69756
G01 X32.90354 Y-13.69789
G01 X32.87240 Y-13.66685
G01 X32.90354 Y-13.69789
G01 X32.90334 Y-13.91496
G01 X32.89813 Y-13.95446
G01 X32.88975 Y-13.98316
G01 X32.87771 Y-14.01051
G01 X32.86222 Y-14.03609
G01 X32.84350 Y-14.05941
G01 X32.81413 Y-14.08631
G01 X32.78927 Y-14.10292
G01 X32.76244 Y-14.11615
G01 X32.73415 Y-14.12575
G01 X32.69491 Y-14.13266
G01 X29.24498 Y-14.13355
G01 X29.21516 Y-14.13159
G01 X29.18584 Y-14.12575
G01 X29.15752 Y-14.11615
G01 X29.13070 Y-14.10292
G01 X29.09806 Y-14.08008
G01 X29.07647 Y-14.05941
G01 X29.05778 Y-14.03609
G01 X29.04226 Y-14.01051
G01 X29.03022 Y-13.98316
G01 X29.02184 Y-13.95446
G01 X29.01666 Y-13.91496
G01 X29.01643 Y-13.69852
G01 X29.04754 Y-13.66728
G01 X29.01643 Y-13.69852
G01 X27.40746 Y-13.69852
G01 X27.40411 Y-13.69037
G01 X27.40746 Y-13.69852
G01 X26.58217 Y-14.52245
G01 X26.53099 Y-14.56085
G01 X26.47551 Y-14.59085
G01 X26.43106 Y-14.60795
G01 X26.41222 Y-14.61341
G01 X26.36418 Y-14.62319
G01 X26.33751 Y-14.62687
G01 X22.75576 Y-14.62674
G01 X22.69901 Y-14.61760
G01 X22.64672 Y-14.60177
G01 X22.62325 Y-14.59255
G01 X22.58936 Y-14.57569
G01 X22.56053 Y-14.55839
G01 X22.52868 Y-14.53571
G01 X22.50689 Y-14.51663
G01 X22.32282 Y-14.33352
G01 X22.32614 Y-14.32545
G01 X22.32282 Y-14.33352
G01 X22.16330 Y-14.33352
G01 X22.14712 Y-14.31201
G01 X22.16330 Y-14.33352
G01 X22.15797 Y-14.35372
G01 X22.15114 Y-14.37246
G01 X22.13793 Y-14.39926
G01 X22.12132 Y-14.42413
G01 X22.10161 Y-14.44661
G01 X22.07913 Y-14.46632
G01 X22.06280 Y-14.47775
G01 X22.02746 Y-14.49614
G01 X21.98947 Y-14.50812
G01 X21.94997 Y-14.51333
G01 X18.75003 Y-14.51333
G01 X18.72031 Y-14.51008
G01 X18.70083 Y-14.50576
G01 X18.66339 Y-14.49212
G01 X18.62889 Y-14.47221
G01 X18.59836 Y-14.44661
G01 X18.57276 Y-14.41607
G01 X18.55285 Y-14.38158
G01 X18.53923 Y-14.34414
G01 X18.53230 Y-14.30490
G01 X18.53143 Y-14.28499
G01 X18.63855 Y-14.28499
G01 X18.64020 Y-14.30498
G01 X18.64878 Y-14.33378
G01 X18.66415 Y-14.35959
G01 X18.67774 Y-14.37434
G01 X18.69356 Y-14.38666
G01 X18.72056 Y-14.39984
G01 X18.73999 Y-14.40477
G01 X18.75998 Y-14.40642
G01 X21.93999 Y-14.40642
G01 X21.96981 Y-14.40271
G01 X21.99780 Y-14.39179
G01 X22.02223 Y-14.37434
G01 X22.04164 Y-14.35141
G01 X22.05119 Y-14.33378
G01 X22.05977 Y-14.30498
G01 X22.06142 Y-14.28499
G01 X22.06142 Y-14.22639
G01 X22.36701 Y-14.22639
G01 X22.58243 Y-14.44069
G01 X22.59815 Y-14.45387
G01 X22.62970 Y-14.47569
G01 X22.67194 Y-14.49695
G01 X22.71685 Y-14.51178
G01 X22.76841 Y-14.52027
G01 X26.32751 Y-14.52019
G01 X26.38852 Y-14.50891
G01 X26.43741 Y-14.49055
G01 X26.47853 Y-14.46726
G01 X26.51473 Y-14.43916
G01 X27.36312 Y-13.59139
G01 X29.12356 Y-13.59139
G01 X29.12356 Y-13.90498
G01 X29.12727 Y-13.93480
G01 X29.13819 Y-13.96279
G01 X29.14917 Y-13.97958
G01 X29.16273 Y-13.99433
G01 X29.17858 Y-14.00665
G01 X29.19621 Y-14.01620
G01 X29.21518 Y-14.02270
G01 X29.23497 Y-14.02601
G01 X32.68502 Y-14.02601
G01 X32.70479 Y-14.02270
G01 X32.72376 Y-14.01620
G01 X32.74141 Y-14.00665
G01 X32.75724 Y-13.99433
G01 X32.77083 Y-13.97958
G01 X32.78180 Y-13.96279
G01 X32.79270 Y-13.93480
G01 X32.79643 Y-13.90498
G01 X32.79643 Y-13.59106
G01 X33.03356 Y-13.58963
G01 X33.07662 Y-13.58212
G01 X33.10966 Y-13.57211
G01 X33.15017 Y-13.55415
G01 X33.18101 Y-13.53553
G01 X33.22726 Y-13.49726
G01 X33.90311 Y-12.82139
G01 X36.34034 Y-12.82139
G01 X36.37595 Y-12.85720
G01 X36.39045 Y-12.86960
G01 X36.40671 Y-12.87955
G01 X36.44852 Y-12.90084
G01 X36.47524 Y-12.91069
G01 X36.54041 Y-12.92106
G01 X37.80953 Y-12.92106
G01 X37.86538 Y-12.91255
G01 X37.88385 Y-12.90810
G01 X37.90140 Y-12.90086
G01 X37.94323 Y-12.87958
G01 X37.95951 Y-12.86960
G01 X37.97404 Y-12.85718
G01 X38.00721 Y-12.82398
G01 X38.01958 Y-12.80947
G01 X38.02951 Y-12.79329
G01 X38.05481 Y-12.74280
G01 X38.06259 Y-12.71532
G01 X38.07104 Y-12.65951
G01 X38.07104 Y-12.34044
G01 X38.06071 Y-12.27526
G01 X38.05083 Y-12.24846
G01 X38.02951 Y-12.20666
G01 X38.01958 Y-12.19045
G01 X38.00721 Y-12.17597
G01 X37.97404 Y-12.14277
G01 X37.95161 Y-12.12507
G01 X37.90145 Y-12.09909
G01 X37.88385 Y-12.09180
G01 X37.86530 Y-12.08735
G01 X37.81895 Y-12.08001
G01 X37.79998 Y-12.07854
G01 X36.54044 Y-12.07889
G01 X36.47526 Y-12.08923
G01 X36.44847 Y-12.09911
G01 X36.40666 Y-12.12042
G01 X36.39043 Y-12.13038
G01 X36.37595 Y-12.14275
G01 X36.34036 Y-12.17854
G01 X33.76999 Y-12.17854
G01 X33.72282 Y-12.18202
G01 X33.67667 Y-12.19236
G01 X33.63255 Y-12.20940
G01 X33.59140 Y-12.23269
G01 X33.55523 Y-12.26078
G01 X32.86684 Y-12.94854
G01 X32.79643 Y-12.94854
G01 X32.79643 Y-12.63498
G01 X32.79478 Y-12.61501
G01 X32.78619 Y-12.58621
G01 X32.77083 Y-12.56040
G01 X32.75724 Y-12.54564
G01 X32.74141 Y-12.53333
G01 X32.71441 Y-12.52014
G01 X32.68502 Y-12.51397
G01 X29.24498 Y-12.51356
G01 X29.22501 Y-12.51521
G01 X29.19621 Y-12.52377
G01 X29.17858 Y-12.53333
G01 X29.16273 Y-12.54564
G01 X29.14917 Y-12.56040
G01 X29.13819 Y-12.57719
G01 X29.12727 Y-12.60518
G01 X29.12356 Y-12.63498
G01 X29.12356 Y-12.94854
G01 X27.22999 Y-12.94854
G01 X27.18430 Y-12.95176
G01 X27.15771 Y-12.95684
G01 X27.14048 Y-12.96162
G01 X27.09616 Y-12.97775
G01 X27.04254 Y-13.00891
G01 X27.00269 Y-13.04267
G01 X26.16685 Y-13.87856
G01 X22.92807 Y-13.87856
G01 X22.71469 Y-13.66578
G01 X22.67979 Y-13.63853
G01 X22.65667 Y-13.62443
G01 X22.64072 Y-13.61638
G01 X22.59800 Y-13.59891
G01 X22.54712 Y-13.58702
G01 X22.49998 Y-13.58354
G01 X22.06142 Y-13.58354
G01 X22.06142 Y-13.52499
G01 X22.05977 Y-13.50500
G01 X22.05485 Y-13.48555
G01 X22.04164 Y-13.45857
G01 X22.02223 Y-13.43563
G01 X22.00641 Y-13.42332
G01 X21.97941 Y-13.41013
G01 X21.95002 Y-13.40396
G01 X18.74995 Y-13.40396
G01 X18.73019 Y-13.40726
G01 X18.71121 Y-13.41379
G01 X18.69356 Y-13.42332
G01 X18.67774 Y-13.43563
G01 X18.66415 Y-13.45039
G01 X18.65318 Y-13.46718
G01 X18.64512 Y-13.48555
G01 X18.64020 Y-13.50500
G01 X18.63855 Y-13.52499
G01 X18.63855 Y-14.28499
G01 X18.53143 Y-14.28499
G01 X18.53143 Y-13.52499
G01 X18.53339 Y-13.49515
G01 X18.53923 Y-13.46584
G01 X18.54883 Y-13.43751
G01 X18.56204 Y-13.41072
G01 X18.57276 Y-13.39390
G01 X18.58490 Y-13.37808
G01 X18.60558 Y-13.35649
G01 X18.62889 Y-13.33777
G01 X18.65211 Y-13.32354
G01 X22.04786 Y-13.32354
G01 X22.07913 Y-13.34366
G01 X22.10161 Y-13.36337
G01 X22.12132 Y-13.38585
G01 X22.13793 Y-13.41072
G01 X22.15477 Y-13.44681
G01 X22.16330 Y-13.47640
G01 X22.14885 Y-13.49652
G01 X22.16330 Y-13.47640
G01 X22.49998 Y-13.47640
G01 X22.56285 Y-13.48105
G01 X22.60811 Y-13.49057
G01 X22.63635 Y-13.49886
G01 X22.68944 Y-13.52080
G01 X22.71177 Y-13.53254
G01 X22.74423 Y-13.55291
G01 X22.78212 Y-13.58247
G01 X22.97239 Y-13.77142
G01 X22.96904 Y-13.77955
G01 X22.97239 Y-13.77142
G01 X26.12245 Y-13.77142
G01 X26.12586 Y-13.77958
G01 X26.12245 Y-13.77142
G01 X26.92695 Y-12.96693
G01 X26.97696 Y-12.92408
G01 X27.02697 Y-12.89312
G01 X27.05082 Y-12.88067
G01 X27.10439 Y-12.86076
G01 X27.12857 Y-12.85359
G01 X27.17452 Y-12.84506
G01 X27.22999 Y-12.84140
G01 X29.01643 Y-12.84140
G01 X29.04754 Y-12.87262
G01 X29.01643 Y-12.84140
G01 X29.01666 Y-12.62502
G01 X29.02184 Y-12.58552
G01 X29.03022 Y-12.55682
G01 X29.04226 Y-12.52946
G01 X29.05778 Y-12.50389
G01 X29.07647 Y-12.48057
G01 X29.09806 Y-12.45989
G01 X29.12219 Y-12.44222
G01 X29.15752 Y-12.42383
G01 X29.18584 Y-12.41422
G01 X29.21516 Y-12.40838
G01 X29.24498 Y-12.40643
G01 X32.69491 Y-12.40729
G01 X32.72445 Y-12.41184
G01 X32.74372 Y-12.41702
G01 X32.77159 Y-12.42784
G01 X32.79780 Y-12.44222
G01 X32.82191 Y-12.45989
G01 X32.84350 Y-12.48057
G01 X32.86222 Y-12.50389
G01 X32.87293 Y-12.52070
G01 X32.88614 Y-12.54752
G01 X32.89297 Y-12.56627
G01 X32.90159 Y-12.60516
G01 X32.90354 Y-12.63498
G01 X32.90354 Y-12.76040
G04 P0 ( dwell for no time -- G64 should not smooth over this point )
G00 Z5.00000 ( retract )

G00 X38.57142 Y-14.44998 ( rapid move to begin. )
G01 F100.00000
( Mill infeed pass 1/1 )
G01 Z-0.08000
G04 P0 ( dwell for no time -- G64 should not smooth over this point )
G01 F300.00000
G01 X38.57142 Y-14.44998
G01 X38.57285 Y-14.42446
G01 X38.58021 Y-14.36035
G01 X38.59050 Y-14.31884
G01 X38.61196 Y-14.25801
G01 X38.62266 Y-14.23472
G01 X38.66098 Y-14.17249
G01 X38.67582 Y-14.15158
G01 X38.69291 Y-14.13248
G01 X38.74501 Y-14.08128
G01 X38.76535 Y-14.06568
G01 X38.81991 Y-14.03119
G01 X38.85801 Y-14.01196
G01 X38.91885 Y-13.99050
G01 X38.94351 Y-13.98341
G01 X38.96883 Y-13.97909
G01 X39.04999 Y-13.97142
G01 X40.34998 Y-13.97142
G01 X40.43111 Y-13.97909
G01 X40.45641 Y-13.98339
G01 X40.48107 Y-13.99050
G01 X40.54196 Y-14.01196
G01 X40.57277 Y-14.02679
G01 X40.64160 Y-14.07063
G01 X40.66746 Y-14.09291
G01 X40.72412 Y-14.15158
G01 X40.73896 Y-14.17249
G01 X40.78115 Y-14.24234
G01 X40.80944 Y-14.31884
G01 X40.81828 Y-14.35184
G01 X40.82710 Y-14.42436
G01 X40.82854 Y-14.44998
G01 X40.82837 Y-15.15852
G01 X40.82082 Y-15.23121
G01 X40.81653 Y-15.25646
G01 X40.80944 Y-15.28107
G01 X40.78798 Y-15.34196
G01 X40.77315 Y-15.37277
G01 X40.72931 Y-15.44160
G01 X40.70703 Y-15.46746
G01 X40.64838 Y-15.52410
G01 X40.58008 Y-15.56873
G01 X40.54986 Y-15.58470
G01 X40.47294 Y-15.61211
G01 X40.43967 Y-15.61970
G01 X40.37559 Y-15.62710
G01 X40.34998 Y-15.62854
G01 X39.03287 Y-15.62791
G01 X38.96873 Y-15.62082
G01 X38.94346 Y-15.61653
G01 X38.91885 Y-15.60944
G01 X38.84234 Y-15.58115
G01 X38.81991 Y-15.56875
G01 X38.75837 Y-15.52933
G01 X38.73863 Y-15.51297
G01 X38.69291 Y-15.46746
G01 X38.67584 Y-15.44838
G01 X38.66101 Y-15.42748
G01 X38.62680 Y-15.37277
G01 X38.61196 Y-15.34196
G01 X38.59050 Y-15.28107
G01 X38.58339 Y-15.25641
G01 X38.57909 Y-15.23111
G01 X38.57142 Y-15.14998
G01 X38.67856 Y-15.14998
G01 X38.68555 Y-15.21915
G01 X38.68892 Y-15.23700
G01 X38.71011 Y-15.29855
G01 X38.71737 Y-15.31521
G01 X38.75171 Y-15.37048
G01 X38.76248 Y-15.38506
G01 X38.80823 Y-15.43129
G01 X38.82199 Y-15.44312
G01 X38.88478 Y-15.48257
G01 X38.90140 Y-15.48983
G01 X38.95423 Y-15.50833
G01 X38.98074 Y-15.51437
G01 X39.04999 Y-15.52141
G01 X40.34998 Y-15.52141
G01 X40.42819 Y-15.51302
G01 X40.44569 Y-15.50833
G01 X40.49855 Y-15.48983
G01 X40.52308 Y-15.47802
G01 X40.57048 Y-15.44823
G01 X40.58506 Y-15.43746
G01 X40.63746 Y-15.38506
G01 X40.64823 Y-15.37048
G01 X40.67802 Y-15.32308
G01 X40.68983 Y-15.29855
G01 X40.70833 Y-15.24569
G01 X40.71303 Y-15.22819
G01 X40.72141 Y-15.14998
G01 X40.72141 Y-14.44998
G01 X40.71437 Y-14.38074
G01 X40.70833 Y-14.35423
G01 X40.68651 Y-14.29294
G01 X40.67805 Y-14.27691
G01 X40.64825 Y-14.22949
G01 X40.63129 Y-14.20823
G01 X40.59171 Y-14.16865
G01 X40.57797 Y-14.15682
G01 X40.51521 Y-14.11737
G01 X40.49855 Y-14.11011
G01 X40.44569 Y-14.09162
G01 X40.41915 Y-14.08554
G01 X40.34998 Y-14.07856
G01 X39.04318 Y-14.07874
G01 X38.98080 Y-14.08554
G01 X38.96291 Y-14.08892
G01 X38.90140 Y-14.11011
G01 X38.87691 Y-14.12189
G01 X38.82949 Y-14.15169
G01 X38.81488 Y-14.16248
G01 X38.76865 Y-14.20823
G01 X38.75682 Y-14.22199
G01 X38.72189 Y-14.27691
G01 X38.71344 Y-14.29294
G01 X38.68892 Y-14.36291
G01 X38.68555 Y-14.38079
G01 X38.67856 Y-14.44998
G01 X38.67856 Y-15.14998
G01 X38.57142 Y-15.14998
G01 X38.57142 Y-8.84999
G01 X38.57285 Y-8.82447
G01 X38.58021 Y-8.76036
G01 X38.59050 Y-8.71888
G01 X38.61882 Y-8.64232
G01 X38.63122 Y-8.61987
G01 X38.66571 Y-8.56531
G01 X38.68699 Y-8.53864
G01 X38.73249 Y-8.49292
G01 X38.75159 Y-8.47583
G01 X38.77249 Y-8.46099
G01 X38.82725 Y-8.42681
G01 X38.86601 Y-8.40900
G01 X38.94346 Y-8.38342
G01 X38.96873 Y-8.37913
G01 X39.04143 Y-8.37159
G01 X40.34998 Y-8.37141
G01 X40.37559 Y-8.37286
G01 X40.43967 Y-8.38025
G01 X40.47294 Y-8.38784
G01 X40.54986 Y-8.41525
G01 X40.58008 Y-8.43123
G01 X40.64838 Y-8.47585
G01 X40.66746 Y-8.49292
G01 X40.72410 Y-8.55157
G01 X40.76873 Y-8.61987
G01 X40.78470 Y-8.65010
G01 X40.80944 Y-8.71888
G01 X40.81653 Y-8.74349
G01 X40.82082 Y-8.76874
G01 X40.82837 Y-8.84144
G01 X40.82854 Y-9.54999
G01 X40.82710 Y-9.57560
G01 X40.81828 Y-9.64811
G01 X40.80944 Y-9.68111
G01 X40.78112 Y-9.75764
G01 X40.76873 Y-9.78007
G01 X40.72412 Y-9.84832
G01 X40.70708 Y-9.86739
G01 X40.64841 Y-9.92408
G01 X40.58008 Y-9.96874
G01 X40.54980 Y-9.98474
G01 X40.48097 Y-10.00945
G01 X40.45641 Y-10.01654
G01 X40.37559 Y-10.02708
G01 X40.34998 Y-10.02853
G01 X39.04999 Y-10.02853
G01 X38.96873 Y-10.02081
G01 X38.94351 Y-10.01652
G01 X38.91895 Y-10.00945
G01 X38.85809 Y-9.98802
G01 X38.81991 Y-9.96876
G01 X38.75156 Y-9.92411
G01 X38.73243 Y-9.90699
G01 X38.68125 Y-9.85490
G01 X38.66568 Y-9.83460
G01 X38.63122 Y-9.78007
G01 X38.61199 Y-9.74197
G01 X38.59050 Y-9.68111
G01 X38.58341 Y-9.65644
G01 X38.57909 Y-9.63112
G01 X38.57206 Y-9.56701
G01 X38.57142 Y-9.54999
G01 X38.67856 Y-9.54999
G01 X38.68692 Y-9.62815
G01 X38.69162 Y-9.64573
G01 X38.71011 Y-9.69856
G01 X38.72192 Y-9.72307
G01 X38.75171 Y-9.77047
G01 X38.76246 Y-9.78505
G01 X38.81486 Y-9.83747
G01 X38.82949 Y-9.84827
G01 X38.87691 Y-9.87806
G01 X38.90145 Y-9.88987
G01 X38.95428 Y-9.90834
G01 X38.97178 Y-9.91301
G01 X39.04999 Y-9.92139
G01 X40.34998 Y-9.92139
G01 X40.41920 Y-9.91436
G01 X40.43700 Y-9.91100
G01 X40.49850 Y-9.88987
G01 X40.52308 Y-9.87803
G01 X40.57048 Y-9.84824
G01 X40.58509 Y-9.83745
G01 X40.63131 Y-9.79167
G01 X40.64312 Y-9.77796
G01 X40.67802 Y-9.72307
G01 X40.68651 Y-9.70702
G01 X40.70833 Y-9.64573
G01 X40.71303 Y-9.62820
G01 X40.72141 Y-9.54999
G01 X40.72123 Y-8.84316
G01 X40.71303 Y-8.77176
G01 X40.70833 Y-8.75426
G01 X40.68983 Y-8.70140
G01 X40.67802 Y-8.67687
G01 X40.64823 Y-8.62947
G01 X40.63746 Y-8.61489
G01 X40.58506 Y-8.56249
G01 X40.57048 Y-8.55172
G01 X40.52308 Y-8.52193
G01 X40.49855 Y-8.51012
G01 X40.43703 Y-8.48893
G01 X40.41920 Y-8.48558
G01 X40.34998 Y-8.47855
G01 X39.04999 Y-8.47855
G01 X38.98074 Y-8.48558
G01 X38.96291 Y-8.48896
G01 X38.90140 Y-8.51012
G01 X38.87691 Y-8.52190
G01 X38.82949 Y-8.55170
G01 X38.81488 Y-8.56249
G01 X38.76865 Y-8.60824
G01 X38.75682 Y-8.62198
G01 X38.72192 Y-8.67687
G01 X38.71341 Y-8.69295
G01 X38.69162 Y-8.75426
G01 X38.68692 Y-8.77181
G01 X38.67856 Y-8.84999
G01 X38.67856 Y-9.54999

G04 P0 ( dwell for no time -- G64 should not smooth over this point )
G00 Z10.000000 ( retract )

M5 ( Spindle off. )
G04 P3.000000
M9 ( Coolant off. )
M2 ( Program end. )

