( pcb2gcode 3.0.4 )
( Software-independent Gcode )
( This file uses a mill head of 0.80000mm to drill the 1 hole sizes. )
( Hole sizes: [3mm] )

G94       (Millimeters per minute feed rate.)
G21       (Units == Millimeters.)
G90       (Absolute coordinates.)
S12000    (RPM spindle speed.)

G01 F300.00000 (Feedrate)
G00 Z10.00000 (Retract to tool change height)
T1
M5        (Spindle stop.)
G04 P3.00000
(MSG, Change tool bit to drill size 0.80000mm)
M0        (Temporary machine stop.)
M3        (Spindle on clockwise.)
G04 P3.00000
G00 Z5.00000

G0 X5.10000 Y-3.00000
G1 Z0.22143 F100.00000
G1 F300.00000
G2 X5.10000 Y-3.00000 Z-0.00000 I-1.10000 J0.00000
G2 X5.10000 Y-3.00000 Z-0.22143 I-1.10000 J0.00000
G2 X5.10000 Y-3.00000 Z-0.44286 I-1.10000 J0.00000
G2 X5.10000 Y-3.00000 Z-0.66429 I-1.10000 J0.00000
G2 X5.10000 Y-3.00000 Z-0.88571 I-1.10000 J0.00000
G2 X5.10000 Y-3.00000 Z-1.10714 I-1.10000 J0.00000
G2 X5.10000 Y-3.00000 Z-1.32857 I-1.10000 J0.00000
G2 X5.10000 Y-3.00000 Z-1.55000 I-1.10000 J0.00000
G2 X5.10000 Y-3.00000 I-1.10000 J0.00000
G1 Z5.00000 F100.00000

G0 X41.10000 Y-21.00000
G1 Z0.22143 F100.00000
G1 F300.00000
G2 X41.10000 Y-21.00000 Z-0.00000 I-1.10000 J0.00000
G2 X41.10000 Y-21.00000 Z-0.22143 I-1.10000 J0.00000
G2 X41.10000 Y-21.00000 Z-0.44286 I-1.10000 J0.00000
G2 X41.10000 Y-21.00000 Z-0.66429 I-1.10000 J0.00000
G2 X41.10000 Y-21.00000 Z-0.88571 I-1.10000 J0.00000
G2 X41.10000 Y-21.00000 Z-1.10714 I-1.10000 J0.00000
G2 X41.10000 Y-21.00000 Z-1.32857 I-1.10000 J0.00000
G2 X41.10000 Y-21.00000 Z-1.55000 I-1.10000 J0.00000
G2 X41.10000 Y-21.00000 I-1.10000 J0.00000
G1 Z5.00000 F100.00000

G00 Z10.000000 ( All done -- retract )

M5      (Spindle off.)
G04 P3.000000
M9      (Coolant off.)
M2      (Program end.)

