( pcb2gcode 3.0.4 )
( Software-independent Gcode )

G94 ( Millimeters per minute feed rate. )
G21 ( Units == Millimeters. )

G90 ( Absolute coordinates. )
G00 S12000 ( RPM spindle speed. )
G01 F300.00000 ( Feedrate. )


G00 Z10.00000 (Retract to tool change height)
T1
M5      (Spindle stop.)
G04 P3.00000 (Wait for spindle to stop)
(MSG, Change tool bit to cutter diameter 0.80000mm)
M0      (Temporary machine stop.)
M3 ( Spindle on clockwise. )
G04 P3.00000 (Wait for spindle to get up to speed)
G04 P0 ( dwell for no time -- G64 should not smooth over this point )
G00 Z5.00000 ( retract )

G00 X-0.40000 Y-23.99998 ( rapid move to begin. )
G01 Z-0.22143 F100.00000 ( plunge. )
G04 P0 ( dwell for no time -- G64 should not smooth over this point )
G01 F300.00000
G01 X-0.40000 Y-13.64999
G01 X-0.40000 Y-10.34999
G01 X-0.40000 Y0.00000
G01 X-0.39677 Y0.05050
G01 X-0.38722 Y0.10025
G01 X-0.37145 Y0.14836
G01 X-0.35911 Y0.17615
G01 X-0.34470 Y0.20290
G01 X-0.31631 Y0.24483
G01 X-0.29680 Y0.26815
G01 X-0.27556 Y0.28992
G01 X-0.23673 Y0.32240
G01 X-0.19411 Y0.34973
G01 X-0.14836 Y0.37145
G01 X-0.10025 Y0.38722
G01 X-0.05050 Y0.39677
G01 X0.00000 Y0.40000
G01 X20.34999 Y0.40000
G01 X23.64999 Y0.40000
G01 X43.99999 Y0.40000
G01 X44.05051 Y0.39677
G01 X44.10024 Y0.38722
G01 X44.14835 Y0.37145
G01 X44.17614 Y0.35911
G01 X44.20288 Y0.34470
G01 X44.24482 Y0.31631
G01 X44.26814 Y0.29680
G01 X44.28990 Y0.27556
G01 X44.32239 Y0.23673
G01 X44.34972 Y0.19411
G01 X44.37144 Y0.14836
G01 X44.38721 Y0.10025
G01 X44.39676 Y0.05050
G01 X44.39999 Y0.00000
G01 X44.39999 Y-10.34999
G01 X44.39999 Y-13.64999
G01 X44.39999 Y-23.99998
G01 X44.39676 Y-24.05050
G01 X44.38721 Y-24.10023
G01 X44.37144 Y-24.14834
G01 X44.35909 Y-24.17613
G01 X44.34469 Y-24.20287
G01 X44.31629 Y-24.24481
G01 X44.29679 Y-24.26813
G01 X44.27555 Y-24.28989
G01 X44.23672 Y-24.32238
G01 X44.19409 Y-24.34971
G01 X44.14835 Y-24.37143
G01 X44.10024 Y-24.38720
G01 X44.05051 Y-24.39675
G01 X43.99999 Y-24.39998
G01 X23.64999 Y-24.39998
G01 X20.34999 Y-24.39998
G01 X0.00000 Y-24.39998
G01 X-0.04046 Y-24.39792
G01 X-0.07056 Y-24.39370
G01 X-0.11003 Y-24.38453
G01 X-0.14836 Y-24.37143
G01 X-0.18519 Y-24.35451
G01 X-0.22012 Y-24.33396
G01 X-0.25276 Y-24.30996
G01 X-0.28283 Y-24.28281
G01 X-0.30998 Y-24.25273
G01 X-0.33398 Y-24.22009
G01 X-0.35453 Y-24.18517
G01 X-0.37145 Y-24.14834
G01 X-0.38456 Y-24.11001
G01 X-0.39373 Y-24.07054
G01 X-0.39794 Y-24.04044
G01 X-0.40000 Y-23.99998
G01 Z-0.44286 F100.00000 ( plunge. )
G04 P0 ( dwell for no time -- G64 should not smooth over this point )
G01 F300.00000
G01 X-0.40000 Y-13.64999
G01 X-0.40000 Y-10.34999
G01 X-0.40000 Y0.00000
G01 X-0.39677 Y0.05050
G01 X-0.38722 Y0.10025
G01 X-0.37145 Y0.14836
G01 X-0.35911 Y0.17615
G01 X-0.34470 Y0.20290
G01 X-0.31631 Y0.24483
G01 X-0.29680 Y0.26815
G01 X-0.27556 Y0.28992
G01 X-0.23673 Y0.32240
G01 X-0.19411 Y0.34973
G01 X-0.14836 Y0.37145
G01 X-0.10025 Y0.38722
G01 X-0.05050 Y0.39677
G01 X0.00000 Y0.40000
G01 X20.34999 Y0.40000
G01 X23.64999 Y0.40000
G01 X43.99999 Y0.40000
G01 X44.05051 Y0.39677
G01 X44.10024 Y0.38722
G01 X44.14835 Y0.37145
G01 X44.17614 Y0.35911
G01 X44.20288 Y0.34470
G01 X44.24482 Y0.31631
G01 X44.26814 Y0.29680
G01 X44.28990 Y0.27556
G01 X44.32239 Y0.23673
G01 X44.34972 Y0.19411
G01 X44.37144 Y0.14836
G01 X44.38721 Y0.10025
G01 X44.39676 Y0.05050
G01 X44.39999 Y0.00000
G01 X44.39999 Y-10.34999
G01 X44.39999 Y-13.64999
G01 X44.39999 Y-23.99998
G01 X44.39676 Y-24.05050
G01 X44.38721 Y-24.10023
G01 X44.37144 Y-24.14834
G01 X44.35909 Y-24.17613
G01 X44.34469 Y-24.20287
G01 X44.31629 Y-24.24481
G01 X44.29679 Y-24.26813
G01 X44.27555 Y-24.28989
G01 X44.23672 Y-24.32238
G01 X44.19409 Y-24.34971
G01 X44.14835 Y-24.37143
G01 X44.10024 Y-24.38720
G01 X44.05051 Y-24.39675
G01 X43.99999 Y-24.39998
G01 X23.64999 Y-24.39998
G01 X20.34999 Y-24.39998
G01 X0.00000 Y-24.39998
G01 X-0.04046 Y-24.39792
G01 X-0.07056 Y-24.39370
G01 X-0.11003 Y-24.38453
G01 X-0.14836 Y-24.37143
G01 X-0.18519 Y-24.35451
G01 X-0.22012 Y-24.33396
G01 X-0.25276 Y-24.30996
G01 X-0.28283 Y-24.28281
G01 X-0.30998 Y-24.25273
G01 X-0.33398 Y-24.22009
G01 X-0.35453 Y-24.18517
G01 X-0.37145 Y-24.14834
G01 X-0.38456 Y-24.11001
G01 X-0.39373 Y-24.07054
G01 X-0.39794 Y-24.04044
G01 X-0.40000 Y-23.99998
G01 Z-0.66429 F100.00000 ( plunge. )
G04 P0 ( dwell for no time -- G64 should not smooth over this point )
G01 F300.00000
G01 X-0.40000 Y-13.64999
G01 X-0.40000 Y-10.34999
G01 X-0.40000 Y0.00000
G01 X-0.39677 Y0.05050
G01 X-0.38722 Y0.10025
G01 X-0.37145 Y0.14836
G01 X-0.35911 Y0.17615
G01 X-0.34470 Y0.20290
G01 X-0.31631 Y0.24483
G01 X-0.29680 Y0.26815
G01 X-0.27556 Y0.28992
G01 X-0.23673 Y0.32240
G01 X-0.19411 Y0.34973
G01 X-0.14836 Y0.37145
G01 X-0.10025 Y0.38722
G01 X-0.05050 Y0.39677
G01 X0.00000 Y0.40000
G01 X20.34999 Y0.40000
G01 X23.64999 Y0.40000
G01 X43.99999 Y0.40000
G01 X44.05051 Y0.39677
G01 X44.10024 Y0.38722
G01 X44.14835 Y0.37145
G01 X44.17614 Y0.35911
G01 X44.20288 Y0.34470
G01 X44.24482 Y0.31631
G01 X44.26814 Y0.29680
G01 X44.28990 Y0.27556
G01 X44.32239 Y0.23673
G01 X44.34972 Y0.19411
G01 X44.37144 Y0.14836
G01 X44.38721 Y0.10025
G01 X44.39676 Y0.05050
G01 X44.39999 Y0.00000
G01 X44.39999 Y-10.34999
G01 X44.39999 Y-13.64999
G01 X44.39999 Y-23.99998
G01 X44.39676 Y-24.05050
G01 X44.38721 Y-24.10023
G01 X44.37144 Y-24.14834
G01 X44.35909 Y-24.17613
G01 X44.34469 Y-24.20287
G01 X44.31629 Y-24.24481
G01 X44.29679 Y-24.26813
G01 X44.27555 Y-24.28989
G01 X44.23672 Y-24.32238
G01 X44.19409 Y-24.34971
G01 X44.14835 Y-24.37143
G01 X44.10024 Y-24.38720
G01 X44.05051 Y-24.39675
G01 X43.99999 Y-24.39998
G01 X23.64999 Y-24.39998
G01 X20.34999 Y-24.39998
G01 X0.00000 Y-24.39998
G01 X-0.04046 Y-24.39792
G01 X-0.07056 Y-24.39370
G01 X-0.11003 Y-24.38453
G01 X-0.14836 Y-24.37143
G01 X-0.18519 Y-24.35451
G01 X-0.22012 Y-24.33396
G01 X-0.25276 Y-24.30996
G01 X-0.28283 Y-24.28281
G01 X-0.30998 Y-24.25273
G01 X-0.33398 Y-24.22009
G01 X-0.35453 Y-24.18517
G01 X-0.37145 Y-24.14834
G01 X-0.38456 Y-24.11001
G01 X-0.39373 Y-24.07054
G01 X-0.39794 Y-24.04044
G01 X-0.40000 Y-23.99998
G01 Z-0.88571 F100.00000 ( plunge. )
G04 P0 ( dwell for no time -- G64 should not smooth over this point )
G01 F300.00000
G01 X-0.40000 Y-13.64999
G01 X-0.40000 Y-10.34999
G01 X-0.40000 Y0.00000
G01 X-0.39677 Y0.05050
G01 X-0.38722 Y0.10025
G01 X-0.37145 Y0.14836
G01 X-0.35911 Y0.17615
G01 X-0.34470 Y0.20290
G01 X-0.31631 Y0.24483
G01 X-0.29680 Y0.26815
G01 X-0.27556 Y0.28992
G01 X-0.23673 Y0.32240
G01 X-0.19411 Y0.34973
G01 X-0.14836 Y0.37145
G01 X-0.10025 Y0.38722
G01 X-0.05050 Y0.39677
G01 X0.00000 Y0.40000
G01 X20.34999 Y0.40000
G01 X23.64999 Y0.40000
G01 X43.99999 Y0.40000
G01 X44.05051 Y0.39677
G01 X44.10024 Y0.38722
G01 X44.14835 Y0.37145
G01 X44.17614 Y0.35911
G01 X44.20288 Y0.34470
G01 X44.24482 Y0.31631
G01 X44.26814 Y0.29680
G01 X44.28990 Y0.27556
G01 X44.32239 Y0.23673
G01 X44.34972 Y0.19411
G01 X44.37144 Y0.14836
G01 X44.38721 Y0.10025
G01 X44.39676 Y0.05050
G01 X44.39999 Y0.00000
G01 X44.39999 Y-10.34999
G01 X44.39999 Y-13.64999
G01 X44.39999 Y-23.99998
G01 X44.39676 Y-24.05050
G01 X44.38721 Y-24.10023
G01 X44.37144 Y-24.14834
G01 X44.35909 Y-24.17613
G01 X44.34469 Y-24.20287
G01 X44.31629 Y-24.24481
G01 X44.29679 Y-24.26813
G01 X44.27555 Y-24.28989
G01 X44.23672 Y-24.32238
G01 X44.19409 Y-24.34971
G01 X44.14835 Y-24.37143
G01 X44.10024 Y-24.38720
G01 X44.05051 Y-24.39675
G01 X43.99999 Y-24.39998
G01 X23.64999 Y-24.39998
G01 X20.34999 Y-24.39998
G01 X0.00000 Y-24.39998
G01 X-0.04046 Y-24.39792
G01 X-0.07056 Y-24.39370
G01 X-0.11003 Y-24.38453
G01 X-0.14836 Y-24.37143
G01 X-0.18519 Y-24.35451
G01 X-0.22012 Y-24.33396
G01 X-0.25276 Y-24.30996
G01 X-0.28283 Y-24.28281
G01 X-0.30998 Y-24.25273
G01 X-0.33398 Y-24.22009
G01 X-0.35453 Y-24.18517
G01 X-0.37145 Y-24.14834
G01 X-0.38456 Y-24.11001
G01 X-0.39373 Y-24.07054
G01 X-0.39794 Y-24.04044
G01 X-0.40000 Y-23.99998
G01 Z-1.10714 F100.00000 ( plunge. )
G04 P0 ( dwell for no time -- G64 should not smooth over this point )
G01 F300.00000
G01 X-0.40000 Y-13.64999
G00 Z-0.90000
G01 X-0.40000 Y-10.34999
G01 Z-1.10714 F100.00000
G01 F300.00000
G01 X-0.40000 Y0.00000
G01 X-0.39677 Y0.05050
G01 X-0.38722 Y0.10025
G01 X-0.37145 Y0.14836
G01 X-0.35911 Y0.17615
G01 X-0.34470 Y0.20290
G01 X-0.31631 Y0.24483
G01 X-0.29680 Y0.26815
G01 X-0.27556 Y0.28992
G01 X-0.23673 Y0.32240
G01 X-0.19411 Y0.34973
G01 X-0.14836 Y0.37145
G01 X-0.10025 Y0.38722
G01 X-0.05050 Y0.39677
G01 X0.00000 Y0.40000
G01 X20.34999 Y0.40000
G00 Z-0.90000
G01 X23.64999 Y0.40000
G01 Z-1.10714 F100.00000
G01 F300.00000
G01 X43.99999 Y0.40000
G01 X44.05051 Y0.39677
G01 X44.10024 Y0.38722
G01 X44.14835 Y0.37145
G01 X44.17614 Y0.35911
G01 X44.20288 Y0.34470
G01 X44.24482 Y0.31631
G01 X44.26814 Y0.29680
G01 X44.28990 Y0.27556
G01 X44.32239 Y0.23673
G01 X44.34972 Y0.19411
G01 X44.37144 Y0.14836
G01 X44.38721 Y0.10025
G01 X44.39676 Y0.05050
G01 X44.39999 Y0.00000
G01 X44.39999 Y-10.34999
G00 Z-0.90000
G01 X44.39999 Y-13.64999
G01 Z-1.10714 F100.00000
G01 F300.00000
G01 X44.39999 Y-23.99998
G01 X44.39676 Y-24.05050
G01 X44.38721 Y-24.10023
G01 X44.37144 Y-24.14834
G01 X44.35909 Y-24.17613
G01 X44.34469 Y-24.20287
G01 X44.31629 Y-24.24481
G01 X44.29679 Y-24.26813
G01 X44.27555 Y-24.28989
G01 X44.23672 Y-24.32238
G01 X44.19409 Y-24.34971
G01 X44.14835 Y-24.37143
G01 X44.10024 Y-24.38720
G01 X44.05051 Y-24.39675
G01 X43.99999 Y-24.39998
G01 X23.64999 Y-24.39998
G00 Z-0.90000
G01 X20.34999 Y-24.39998
G01 Z-1.10714 F100.00000
G01 F300.00000
G01 X0.00000 Y-24.39998
G01 X-0.04046 Y-24.39792
G01 X-0.07056 Y-24.39370
G01 X-0.11003 Y-24.38453
G01 X-0.14836 Y-24.37143
G01 X-0.18519 Y-24.35451
G01 X-0.22012 Y-24.33396
G01 X-0.25276 Y-24.30996
G01 X-0.28283 Y-24.28281
G01 X-0.30998 Y-24.25273
G01 X-0.33398 Y-24.22009
G01 X-0.35453 Y-24.18517
G01 X-0.37145 Y-24.14834
G01 X-0.38456 Y-24.11001
G01 X-0.39373 Y-24.07054
G01 X-0.39794 Y-24.04044
G01 X-0.40000 Y-23.99998
G01 Z-1.32857 F100.00000 ( plunge. )
G04 P0 ( dwell for no time -- G64 should not smooth over this point )
G01 F300.00000
G01 X-0.40000 Y-13.64999
G00 Z-0.90000
G01 X-0.40000 Y-10.34999
G01 Z-1.32857 F100.00000
G01 F300.00000
G01 X-0.40000 Y0.00000
G01 X-0.39677 Y0.05050
G01 X-0.38722 Y0.10025
G01 X-0.37145 Y0.14836
G01 X-0.35911 Y0.17615
G01 X-0.34470 Y0.20290
G01 X-0.31631 Y0.24483
G01 X-0.29680 Y0.26815
G01 X-0.27556 Y0.28992
G01 X-0.23673 Y0.32240
G01 X-0.19411 Y0.34973
G01 X-0.14836 Y0.37145
G01 X-0.10025 Y0.38722
G01 X-0.05050 Y0.39677
G01 X0.00000 Y0.40000
G01 X20.34999 Y0.40000
G00 Z-0.90000
G01 X23.64999 Y0.40000
G01 Z-1.32857 F100.00000
G01 F300.00000
G01 X43.99999 Y0.40000
G01 X44.05051 Y0.39677
G01 X44.10024 Y0.38722
G01 X44.14835 Y0.37145
G01 X44.17614 Y0.35911
G01 X44.20288 Y0.34470
G01 X44.24482 Y0.31631
G01 X44.26814 Y0.29680
G01 X44.28990 Y0.27556
G01 X44.32239 Y0.23673
G01 X44.34972 Y0.19411
G01 X44.37144 Y0.14836
G01 X44.38721 Y0.10025
G01 X44.39676 Y0.05050
G01 X44.39999 Y0.00000
G01 X44.39999 Y-10.34999
G00 Z-0.90000
G01 X44.39999 Y-13.64999
G01 Z-1.32857 F100.00000
G01 F300.00000
G01 X44.39999 Y-23.99998
G01 X44.39676 Y-24.05050
G01 X44.38721 Y-24.10023
G01 X44.37144 Y-24.14834
G01 X44.35909 Y-24.17613
G01 X44.34469 Y-24.20287
G01 X44.31629 Y-24.24481
G01 X44.29679 Y-24.26813
G01 X44.27555 Y-24.28989
G01 X44.23672 Y-24.32238
G01 X44.19409 Y-24.34971
G01 X44.14835 Y-24.37143
G01 X44.10024 Y-24.38720
G01 X44.05051 Y-24.39675
G01 X43.99999 Y-24.39998
G01 X23.64999 Y-24.39998
G00 Z-0.90000
G01 X20.34999 Y-24.39998
G01 Z-1.32857 F100.00000
G01 F300.00000
G01 X0.00000 Y-24.39998
G01 X-0.04046 Y-24.39792
G01 X-0.07056 Y-24.39370
G01 X-0.11003 Y-24.38453
G01 X-0.14836 Y-24.37143
G01 X-0.18519 Y-24.35451
G01 X-0.22012 Y-24.33396
G01 X-0.25276 Y-24.30996
G01 X-0.28283 Y-24.28281
G01 X-0.30998 Y-24.25273
G01 X-0.33398 Y-24.22009
G01 X-0.35453 Y-24.18517
G01 X-0.37145 Y-24.14834
G01 X-0.38456 Y-24.11001
G01 X-0.39373 Y-24.07054
G01 X-0.39794 Y-24.04044
G01 X-0.40000 Y-23.99998
G01 Z-1.55000 F100.00000 ( plunge. )
G04 P0 ( dwell for no time -- G64 should not smooth over this point )
G01 F300.00000
G01 X-0.40000 Y-13.64999
G00 Z-0.90000
G01 X-0.40000 Y-10.34999
G01 Z-1.55000 F100.00000
G01 F300.00000
G01 X-0.40000 Y0.00000
G01 X-0.39677 Y0.05050
G01 X-0.38722 Y0.10025
G01 X-0.37145 Y0.14836
G01 X-0.35911 Y0.17615
G01 X-0.34470 Y0.20290
G01 X-0.31631 Y0.24483
G01 X-0.29680 Y0.26815
G01 X-0.27556 Y0.28992
G01 X-0.23673 Y0.32240
G01 X-0.19411 Y0.34973
G01 X-0.14836 Y0.37145
G01 X-0.10025 Y0.38722
G01 X-0.05050 Y0.39677
G01 X0.00000 Y0.40000
G01 X20.34999 Y0.40000
G00 Z-0.90000
G01 X23.64999 Y0.40000
G01 Z-1.55000 F100.00000
G01 F300.00000
G01 X43.99999 Y0.40000
G01 X44.05051 Y0.39677
G01 X44.10024 Y0.38722
G01 X44.14835 Y0.37145
G01 X44.17614 Y0.35911
G01 X44.20288 Y0.34470
G01 X44.24482 Y0.31631
G01 X44.26814 Y0.29680
G01 X44.28990 Y0.27556
G01 X44.32239 Y0.23673
G01 X44.34972 Y0.19411
G01 X44.37144 Y0.14836
G01 X44.38721 Y0.10025
G01 X44.39676 Y0.05050
G01 X44.39999 Y0.00000
G01 X44.39999 Y-10.34999
G00 Z-0.90000
G01 X44.39999 Y-13.64999
G01 Z-1.55000 F100.00000
G01 F300.00000
G01 X44.39999 Y-23.99998
G01 X44.39676 Y-24.05050
G01 X44.38721 Y-24.10023
G01 X44.37144 Y-24.14834
G01 X44.35909 Y-24.17613
G01 X44.34469 Y-24.20287
G01 X44.31629 Y-24.24481
G01 X44.29679 Y-24.26813
G01 X44.27555 Y-24.28989
G01 X44.23672 Y-24.32238
G01 X44.19409 Y-24.34971
G01 X44.14835 Y-24.37143
G01 X44.10024 Y-24.38720
G01 X44.05051 Y-24.39675
G01 X43.99999 Y-24.39998
G01 X23.64999 Y-24.39998
G00 Z-0.90000
G01 X20.34999 Y-24.39998
G01 Z-1.55000 F100.00000
G01 F300.00000
G01 X0.00000 Y-24.39998
G01 X-0.04046 Y-24.39792
G01 X-0.07056 Y-24.39370
G01 X-0.11003 Y-24.38453
G01 X-0.14836 Y-24.37143
G01 X-0.18519 Y-24.35451
G01 X-0.22012 Y-24.33396
G01 X-0.25276 Y-24.30996
G01 X-0.28283 Y-24.28281
G01 X-0.30998 Y-24.25273
G01 X-0.33398 Y-24.22009
G01 X-0.35453 Y-24.18517
G01 X-0.37145 Y-24.14834
G01 X-0.38456 Y-24.11001
G01 X-0.39373 Y-24.07054
G01 X-0.39794 Y-24.04044
G01 X-0.40000 Y-23.99998

G04 P0 ( dwell for no time -- G64 should not smooth over this point )
G00 Z10.000000 ( retract )

M5 ( Spindle off. )
G04 P3.000000
M9 ( Coolant off. )
M2 ( Program end. )

